,ID_GPS,ISO,Country,Partyname,V14,Group,Group_region,Region,longitude,latitude
0,1,AFG,Afghanistan,Islamic Society,7.5,B,Region6,South Asia,67.709953,33.93911
3,2,AFG,Afghanistan,Islamic Unity Party of Afghanistan,5.5,,Region6,South Asia,67.709953,33.93911
6,3,AFG,Afghanistan,National Islamic Movement of Afghanistan,9.333333333,D,Region6,South Asia,67.709953,33.93911
9,4,AFG,Afghanistan,People's Islamic Unity Party of Afghanistan,5.5,,Region6,South Asia,67.709953,33.93911
12,5,AFG,Afghanistan,Republican Party of Afghanistan,2.333333333,,Region6,South Asia,67.709953,33.93911
15,6,AGO,Angola,Broad Convergence for the Salvation of Angola – Electoral Coalition,2.166666667,,Region7,Sub-Saharan Africa,17.873887,-11.202692
32,7,AGO,Angola,National Front for the Liberation of Angola,2.333333333,,Region7,Sub-Saharan Africa,17.873887,-11.202692
33,8,AGO,Angola,National Union for the Total Independence of Angola,2.333333333,,Region7,Sub-Saharan Africa,17.873887,-11.202692
50,9,AGO,Angola,People's Movement for the Liberation of Angola,2.166666667,,Region7,Sub-Saharan Africa,17.873887,-11.202692
59,10,AGO,Angola,Social Renewal Party,1.75,,Region7,Sub-Saharan Africa,17.873887,-11.202692
60,19,ARG,Argentina,Civic Front for Santiago,5.5,,Region3,Latin America and the Caribbean,-63.616672,-38.416097
419,20,ARG,Argentina,Evolución,2.727272727,,Region3,Latin America and the Caribbean,-63.616672,-38.416097
420,21,ARG,Argentina,Front for the Renewal of Concord,2,,Region3,Latin America and the Caribbean,-63.616672,-38.416097
779,23,ARG,Argentina,"Progressive, Civic and Social Front",1.555555556,,Region3,Latin America and the Caribbean,-63.616672,-38.416097
780,24,ARG,Argentina,Union for Córdoba ,4.5,,Region3,Latin America and the Caribbean,-63.616672,-38.416097
1139,25,ARG,Argentina,United for a New Alternative,3.75,,Region3,Latin America and the Caribbean,-63.616672,-38.416097
1319,26,ARG,Argentina,Workers' Left Front,1.416666667,,Region3,Latin America and the Caribbean,-63.616672,-38.416097
1320,27,ARM,Armenia,Bright Armenia,2.555555556,,Region2,Europe and Central Asia,45.038189,40.069099
1421,28,ARM,Armenia,My Step Alliance,2.4,,Region2,Europe and Central Asia,45.038189,40.069099
1422,33,AUS,Australia,Katters Australia Party,6.2,A,Region1,East Asia and the Pacific,133.775136,-25.274398
1901,34,AUS,Australia,Liberal National Party,3.5,,Region1,East Asia and the Pacific,133.775136,-25.274398
1902,37,AUS,Australia,Nick Xenophon,1.75,,Region1,East Asia and the Pacific,133.775136,-25.274398
2142,44,AZE,Azerbaijan,Independents,0,,Region2,Europe and Central Asia,47.576927,40.143105
2172,46,BDI,Burundi,Front for Democracy in Burundi,2,,Region7,Sub-Saharan Africa,29.918886,-3.373056
2179,47,BDI,Burundi,National Council for the Defense of Democracy,4,,Region7,Sub-Saharan Africa,29.918886,-3.373056
2183,48,BDI,Burundi,Union for National Progress,3.5,,Region7,Sub-Saharan Africa,29.918886,-3.373056
2184,49,BEL,Belgium,Christian Democrats and Flemish,3,,Region2,Europe and Central Asia,4.469936,50.503887
2395,50,BEL,Belgium,Flemish Interest,6.4,A,Region2,Europe and Central Asia,4.469936,50.503887
2396,51,BEL,Belgium,Francophone Reformist Movement,2.1,,Region2,Europe and Central Asia,4.469936,50.503887
2607,52,BEL,Belgium,Green,0.916666667,,Region2,Europe and Central Asia,4.469936,50.503887
2608,53,BEL,Belgium,Humanist Democratic Centre,2.875,,Region2,Europe and Central Asia,4.469936,50.503887
2714,54,BEL,Belgium,New Flemish Alliance,3.875,,Region2,Europe and Central Asia,4.469936,50.503887
2925,55,BEL,Belgium,Open Flemish Liberals and Democrats,1.818181818,,Region2,Europe and Central Asia,4.469936,50.503887
2926,56,BEL,Belgium,Socialist Party,1.916666667,,Region2,Europe and Central Asia,4.469936,50.503887
3137,57,BEL,Belgium,Socialist Party Differently,1.909090909,,Region2,Europe and Central Asia,4.469936,50.503887
3138,58,BEL,Belgium,Worker's Party,1.777777778,,Region2,Europe and Central Asia,4.469936,50.503887
3244,59,BEN,Benin,Alliance nationale pour le developpement et la democratie,7,B,Region7,Sub-Saharan Africa,2.315834,9.30769
3256,61,BEN,Benin,Alliance Soleil,7,B,Region7,Sub-Saharan Africa,2.315834,9.30769
3268,63,BEN,Benin,Cauri Forces for an Emerging Benin,7,B,Region7,Sub-Saharan Africa,2.315834,9.30769
3344,76,BFA,Burkina Faso,Union for Progress and Change,3.333333333,,Region7,Sub-Saharan Africa,-1.561593,12.238333
3363,77,BFA,Burkina Faso,Union for Rebirth-Sankarist,3,,Region7,Sub-Saharan Africa,-1.561593,12.238333
3364,81,BGD,Bangladesh,Bangladesh Tarikat Federation,7.333333333,B,Region6,South Asia,90.356331,23.684994
3481,83,BGD,Bangladesh,Jatiya Party  (Manju),3.75,,Region6,South Asia,90.356331,23.684994
3482,84,BGD,Bangladesh,Jatiyo Samajtantrik Dal ,1.75,,Region6,South Asia,90.356331,23.684994
3599,85,BGD,Bangladesh,Worker's Party of Bangladesh,1.75,,Region6,South Asia,90.356331,23.684994
3600,89,BGR,Bulgaria,United Patriots,8.125,C,Region2,Europe and Central Asia,25.48583,42.733883
3703,91,BHR,Bahrain,National Islamic Al-Menbar,9,D,Region4,Middle East and North Africa,50.637772,25.930414
3704,92,BHR,Bahrain,Independents,3,,Region4,Middle East and North Africa,50.637772,25.930414
3705,93,BHR,Bahrain,Islamic Al Asalah,8.5,C,Region4,Middle East and North Africa,50.637772,25.930414
3706,94,BHS,Bahamas,Democratic National Alliance,4,,Region3,Latin America and the Caribbean,-77.39628,25.03428
3748,96,BHS,Bahamas,Progressive Liberal Party,4,,Region3,Latin America and the Caribbean,-77.39628,25.03428
3769,98,BIH,Bosnia and Herzegovina,Democratic Front,2.714285714,,Region2,Europe and Central Asia,17.679076,43.915886
3778,99,BIH,Bosnia and Herzegovina,Democratic People's Alliance,1.5,,Region2,Europe and Central Asia,17.679076,43.915886
3779,100,BIH,Bosnia and Herzegovina,HDZ-HSS-HSP-HNS-HKDU-HSP-AS BiH-HDU BiH,4.5,,Region2,Europe and Central Asia,17.679076,43.915886
3788,101,BIH,Bosnia and Herzegovina,Our Party,2.333333333,,Region2,Europe and Central Asia,17.679076,43.915886
3789,106,BIH,Bosnia and Herzegovina,Union for a Better Future of BiH,2.666666667,,Region2,Europe and Central Asia,17.679076,43.915886
3794,110,BLR,Belarus,Non-partisans,9,D,Region2,Europe and Central Asia,27.953389,53.709807
3857,113,BLZ,Belize,Others,8.5,C,Region3,Latin America and the Caribbean,-88.49765,17.189877
3870,114,BLZ,Belize,People's United Party,5,,Region3,Latin America and the Caribbean,-88.49765,17.189877
3871,115,BLZ,Belize,United Democratic Party,8,C,Region3,Latin America and the Caribbean,-88.49765,17.189877
3878,116,BOL,Bolivia,Christian Democratic Party,6.666666667,A,Region3,Latin America and the Caribbean,-63.588653,-16.290154
4097,117,BOL,Bolivia,Movement for Socialism,2.8,,Region3,Latin America and the Caribbean,-63.588653,-16.290154
4098,118,BOL,Bolivia,National Unity Front,2.5,,Region3,Latin America and the Caribbean,-63.588653,-16.290154
4208,130,BRB,Barbados,Barbados Labor Party,2.5,,Region3,Latin America and the Caribbean,-59.543198,13.193887
4263,131,BRB,Barbados,Democratic Labor Party,2,,Region3,Latin America and the Caribbean,-59.543198,13.193887
4264,132,BTN,Bhutan,Bhutan United,2,,Region6,South Asia,90.433601,27.514162
4271,133,BTN,Bhutan,Peace and Prosperity,2,,Region6,South Asia,90.433601,27.514162
4272,134,BWA,Botswana,Botswana Congress Party,3.5,,Region7,Sub-Saharan Africa,24.684866,-22.328474
4306,135,BWA,Botswana,Botswana Democratic Party,3.6,,Region7,Sub-Saharan Africa,24.684866,-22.328474
4308,136,BWA,Botswana,Umbrella for Democratic Change,4,,Region7,Sub-Saharan Africa,24.684866,-22.328474
4326,152,CHL,Chile,Broad Front,1.1,,Region3,Latin America and the Caribbean,-71.542969,-35.675147
4697,153,CHL,Chile,Chile Let's Go,6.5,A,Region3,Latin America and the Caribbean,-71.542969,-35.675147
4698,154,CHL,Chile,Democratic Convergence,3,,Region3,Latin America and the Caribbean,-71.542969,-35.675147
5069,155,CHL,Chile,The Force of the Majority,2.5,,Region3,Latin America and the Caribbean,-71.542969,-35.675147
5070,156,CIV,Cote d'Ivoire,Independents,3.25,,Region7,Sub-Saharan Africa,-5.54708,7.539989
5133,157,CIV,Cote d'Ivoire,Ivorian Popular Front,4.4,,Region7,Sub-Saharan Africa,-5.54708,7.539989
5134,158,CIV,Cote d'Ivoire,Rally of Houphouetists for Democracy and Peace,3,,Region7,Sub-Saharan Africa,-5.54708,7.539989
5197,159,CIV,Cote d'Ivoire,Union for Cote d'Ivoire,4,,Region7,Sub-Saharan Africa,-5.54708,7.539989
5198,160,CIV,Cote d'Ivoire,Union for Democracy and Peace in Cote d'Ivoire,3.6,,Region7,Sub-Saharan Africa,-5.54708,7.539989
5230,161,CMR,Cameroon,Cameroon Democratic Union,1,,Region7,Sub-Saharan Africa,12.354722,7.369722
5246,162,CMR,Cameroon,Cameroon People's Democratic Movement,2.2,,Region7,Sub-Saharan Africa,12.354722,7.369722
5255,163,CMR,Cameroon,Cameroon Renaissance Movement,0.666666667,,Region7,Sub-Saharan Africa,12.354722,7.369722
5265,164,CMR,Cameroon,Movement for the Defense of the Republic,1,,Region7,Sub-Saharan Africa,12.354722,7.369722
5266,165,CMR,Cameroon,National Union for Democracy and Progress,0.666666667,,Region7,Sub-Saharan Africa,12.354722,7.369722
5283,166,CMR,Cameroon,Social Democratic Front,2.6,,Region7,Sub-Saharan Africa,12.354722,7.369722
5284,167,CMR,Cameroon,Union of the Peoples of Cameroon,0.666666667,,Region7,Sub-Saharan Africa,12.354722,7.369722
5293,168,COD,Democratic Republic of the Congo,Heading for Change,3,,Region7,Sub-Saharan Africa,21.758664,-4.038333
5296,169,COD,Democratic Republic of the Congo,Joint Front for Congo,3.5,,Region7,Sub-Saharan Africa,21.758664,-4.038333
5298,170,COD,Democratic Republic of the Congo,Lamuka Coalition,1.333333333,,Region7,Sub-Saharan Africa,21.758664,-4.038333
5299,171,COG,Republic of the Congo,Action Movement for Renewal,4,,Region7,Sub-Saharan Africa,15.827659,-0.228021
5303,172,COG,Republic of the Congo,Club 2002 PUR,4,,Region7,Sub-Saharan Africa,15.827659,-0.228021
5307,173,COG,Republic of the Congo,Congolese Party of Labour,4,,Region7,Sub-Saharan Africa,15.827659,-0.228021
5311,174,COG,Republic of the Congo,Dynamic for the Republic and Recovery,4,,Region7,Sub-Saharan Africa,15.827659,-0.228021
5315,175,COG,Republic of the Congo,Independents,3,,Region7,Sub-Saharan Africa,15.827659,-0.228021
5319,176,COG,Republic of the Congo,Pan-African Union for Social Democracy,3,,Region7,Sub-Saharan Africa,15.827659,-0.228021
5323,177,COG,Republic of the Congo,Party for Agreement and Political Action,3,,Region7,Sub-Saharan Africa,15.827659,-0.228021
5327,178,COG,Republic of the Congo,Patriotic Front,3,,Region7,Sub-Saharan Africa,15.827659,-0.228021
5331,179,COG,Republic of the Congo,Rally for Democracy and Social Progress,3,,Region7,Sub-Saharan Africa,15.827659,-0.228021
5335,180,COG,Republic of the Congo,Union for a People's Movement,3,,Region7,Sub-Saharan Africa,15.827659,-0.228021
5702,183,COL,Colombia,Coalition List of the Decency,0,,Region3,Latin America and the Caribbean,-74.297333,4.570868
5703,191,COM,Comoros,Convention for the Renewal of the Comoros,10,E,Region7,Sub-Saharan Africa,43.872219,-11.875001
5705,192,COM,Comoros,Democratic Rally of the Comoros,2,,Region7,Sub-Saharan Africa,43.872219,-11.875001
5707,193,COM,Comoros,Independents,0,,Region7,Sub-Saharan Africa,43.872219,-11.875001
5710,194,COM,Comoros,JUWA party,0,,Region7,Sub-Saharan Africa,43.872219,-11.875001
5714,196,COM,Comoros,Rally for an Alternative of Harmonious and Integrated Development,10,E,Region7,Sub-Saharan Africa,43.872219,-11.875001
5715,197,COM,Comoros,Union for the Development of the Comoros,0,,Region7,Sub-Saharan Africa,43.872219,-11.875001
5717,198,CPV,Cape Verde,African Party for the Independence of Cape Verde,2,,Region7,Sub-Saharan Africa,-24.013197,16.002082
5726,199,CPV,Cape Verde,Democratic and Independent Cape Verdean Union,4,,Region7,Sub-Saharan Africa,-24.013197,16.002082
5736,201,CPV,Cape Verde,Movement for Democracy,3,,Region7,Sub-Saharan Africa,-24.013197,16.002082
5741,202,CPV,Cape Verde,People's Party,2,,Region7,Sub-Saharan Africa,-24.013197,16.002082
5747,204,CRI,Costa Rica,Accessibility without Exclusion,6.833333333,A,Region3,Latin America and the Caribbean,-83.753428,9.748917
6128,205,CRI,Costa Rica,Broad Front,0.5,,Region3,Latin America and the Caribbean,-83.753428,9.748917
6129,206,CRI,Costa Rica,Citizens Action Party,1,,Region3,Latin America and the Caribbean,-83.753428,9.748917
6510,207,CRI,Costa Rica,Libertarian Movement Party,5.666666667,,Region3,Latin America and the Caribbean,-83.753428,9.748917
6511,208,CRI,Costa Rica,National Integration,8.166666667,C,Region3,Latin America and the Caribbean,-83.753428,9.748917
6892,209,CRI,Costa Rica,National Liberation Party,2.166666667,,Region3,Latin America and the Caribbean,-83.753428,9.748917
6893,210,CRI,Costa Rica,National Restoration,8.5,C,Region3,Latin America and the Caribbean,-83.753428,9.748917
7274,211,CRI,Costa Rica,New Generation Party,5.666666667,,Region3,Latin America and the Caribbean,-83.753428,9.748917
7275,212,CRI,Costa Rica,Social Christian Unity Party,6.166666667,A,Region3,Latin America and the Caribbean,-83.753428,9.748917
7656,213,CRI,Costa Rica,Social-Christian Republican Party,8,C,Region3,Latin America and the Caribbean,-83.753428,9.748917
7657,214,CUB,Cuba,Communist Party,1.5,,Region3,Latin America and the Caribbean,-77.781167,21.521757
7664,215,CYP,Cyprus,Citizen's Alliance,2.75,,Region2,Europe and Central Asia,33.429859,35.126413
7723,222,CYP,Cyprus,Solidarity Movement,3.285714286,,Region2,Europe and Central Asia,33.429859,35.126413
7724,223,CZE,Czech Republic,ANO 2011,4.5,,Region2,Europe and Central Asia,15.472962,49.817492
8021,227,CZE,Czech Republic,Czech Pirate Party,1.92,,Region2,Europe and Central Asia,15.472962,49.817492
8022,231,CZE,Czech Republic,TOP 09,3.045454545,,Region2,Europe and Central Asia,15.472962,49.817492
8171,239,DJI,Djibouti,Center of Unified Democrats,0,,Region4,Middle East and North Africa,42.590275,11.825138
8180,240,DJI,Djibouti,Union for Democracy and Justice / Djibouti Development Party,0,,Region4,Middle East and North Africa,42.590275,11.825138
8185,241,DJI,Djibouti,Union for the Presidential Majority,0,,Region4,Middle East and North Africa,42.590275,11.825138
8186,243,DNK,Denmark,Christian Democrats,6.333333333,A,Region2,Europe and Central Asia,9.501785,56.26392
8560,254,DOM,Dominican Republic,Liberal Reformist Party,7.333333333,B,Region3,Latin America and the Caribbean,-70.162651,18.735693
8561,255,DOM,Dominican Republic,Modern Revolutionary Party,3,,Region3,Latin America and the Caribbean,-70.162651,18.735693
8657,261,DZA,Algeria,Tajamoua Emel El Djazair,7.5,B,Region4,Middle East and North Africa,1.659626,28.033886
8860,279,ERI,Eritrea,People's Front for Democracy and Justice,6,A,Region7,Sub-Saharan Africa,39.782334,15.179384
8861,285,ESP,Spain,Together for Catalonia,2.688888889,,Region2,Europe and Central Asia,-3.74922,40.463667
9016,287,ESP,Spain,Vox,9.026666667,D,Region2,Europe and Central Asia,-3.74922,40.463667
9171,297,ETH,Ethiopia,The Argoba People Democratic Organization,4,,Region7,Sub-Saharan Africa,40.489673,9.145
9224,299,ETH,Ethiopia,The Gambela People's Unity Democratic Movement,4.75,,Region7,Sub-Saharan Africa,40.489673,9.145
9225,300,ETH,Ethiopia,The Harari National League,4.5,,Region7,Sub-Saharan Africa,40.489673,9.145
9252,310,FJI,Fiji,Fiji Labor Party,3,,Region1,East Asia and the Pacific,179.414413,-16.578193
9285,311,FJI,Fiji,FijiFirst,2.625,,Region1,East Asia and the Pacific,179.414413,-16.578193
9286,312,FJI,Fiji,HOPE Party,2.4,,Region1,East Asia and the Pacific,179.414413,-16.578193
9319,313,FJI,Fiji,National Federation Party,2.5,,Region1,East Asia and the Pacific,179.414413,-16.578193
9320,314,FJI,Fiji,Social Democratic Liberal Party,5,,Region1,East Asia and the Pacific,179.414413,-16.578193
9353,315,FJI,Fiji,Unity Fiji Party,3.333333333,,Region1,East Asia and the Pacific,179.414413,-16.578193
9354,323,GAB,Gabon,Circle of Liberal Reformers,3,,Region7,Sub-Saharan Africa,11.609444,-0.803689
9385,324,GAB,Gabon,Gabonese Democratic Party,3,,Region7,Sub-Saharan Africa,11.609444,-0.803689
9386,325,GAB,Gabon,National Union,4,,Region7,Sub-Saharan Africa,11.609444,-0.803689
9402,326,GBR,United Kingdom,Brexit Party,8.086956522,C,Region2,Europe and Central Asia,-3.435973,55.378051
9963,328,GBR,United Kingdom,Democratic Unionist Party,8.647058824,C,Region2,Europe and Central Asia,-3.435973,55.378051
9964,334,GBR,United Kingdom,Sinn Féin,3.428571429,,Region2,Europe and Central Asia,-3.435973,55.378051
10525,335,GBR,United Kingdom,UK Independence Party,8.421052632,C,Region2,Europe and Central Asia,-3.435973,55.378051
10526,337,GEO,Georgia,Georgian Dream,3.833333333,,Region2,Europe and Central Asia,43.356892,42.315407
10639,338,GEO,Georgia,Independents,3.5,,Region2,Europe and Central Asia,43.356892,42.315407
10640,339,GEO,Georgia,"Topadze - Industrialists, Our Fatherland",4.2,,Region2,Europe and Central Asia,43.356892,42.315407
10697,343,GIN,Guinea,New Generation for the Republic,10,E,Region7,Sub-Saharan Africa,-9.696645,9.945587
10708,344,GIN,Guinea,Party of Hope for National Development,10,E,Region7,Sub-Saharan Africa,-9.696645,9.945587
10709,345,GIN,Guinea,Rally of the Guinean People,7,B,Region7,Sub-Saharan Africa,-9.696645,9.945587
10720,346,GIN,Guinea,Union for the Progress of Guinea,9,D,Region7,Sub-Saharan Africa,-9.696645,9.945587
10721,347,GIN,Guinea,Union of Democratic Forces of Guinea,10,E,Region7,Sub-Saharan Africa,-9.696645,9.945587
10732,348,GIN,Guinea,Union of Republican Forces,10,E,Region7,Sub-Saharan Africa,-9.696645,9.945587
10733,349,GMB,Gambia,Alliance for Patriotic Reorientation and Construction,9,D,Region7,Sub-Saharan Africa,-15.310139,13.443182
10764,350,GMB,Gambia,Gambia Democratic Congress,9,D,Region7,Sub-Saharan Africa,-15.310139,13.443182
10765,351,GMB,Gambia,National Reconciliation Party,9,D,Region7,Sub-Saharan Africa,-15.310139,13.443182
10796,352,GMB,Gambia,People's Democratic Organization for Independence and Socialism,2,,Region7,Sub-Saharan Africa,-15.310139,13.443182
10797,353,GMB,Gambia,People's Progressive Party,9,D,Region7,Sub-Saharan Africa,-15.310139,13.443182
10829,355,GNB,Guinea-Bissau,African Party for the Independence of Guinea-Bissau and Cape Verde,2,,Region7,Sub-Saharan Africa,-15.180413,11.803749
10838,356,GNB,Guinea-Bissau,Assembly of the People United–Democratic Party of Guinea-Bissau,7,B,Region7,Sub-Saharan Africa,-15.180413,11.803749
10839,357,GNB,Guinea-Bissau,Madem-G15,7,B,Region7,Sub-Saharan Africa,-15.180413,11.803749
10848,358,GNB,Guinea-Bissau,New Democracy Party,3,,Region7,Sub-Saharan Africa,-15.180413,11.803749
10849,359,GNB,Guinea-Bissau,Party for Democratic Convergence,2,,Region7,Sub-Saharan Africa,-15.180413,11.803749
10858,360,GNB,Guinea-Bissau,Party for Social Renewal,7,B,Region7,Sub-Saharan Africa,-15.180413,11.803749
10859,361,GNB,Guinea-Bissau,Union for Change,1,,Region7,Sub-Saharan Africa,-15.180413,11.803749
10864,362,GNQ,Equatorial Guinea,Citizens for Innovation,3.5,,Region7,Sub-Saharan Africa,10.267895,1.650801
10865,363,GNQ,Equatorial Guinea,Democratic Party of Equatorial Guinea,5.666666667,,Region7,Sub-Saharan Africa,10.267895,1.650801
10866,364,GNQ,Equatorial Guinea,Together We Can,6.5,A,Region7,Sub-Saharan Africa,10.267895,1.650801
10867,369,GRC,Greece,Pan Hellenic Socialist Movement,2.272727273,,Region2,Europe and Central Asia,21.824312,39.074208
11100,371,GRC,Greece,The River,0.818181818,,Region2,Europe and Central Asia,21.824312,39.074208
11101,372,GRC,Greece,Union of Centrists,5,,Region2,Europe and Central Asia,21.824312,39.074208
11218,373,GRD,Grenada,New National Party,2.333333333,,Region3,Latin America and the Caribbean,-61.604171,12.262776
11353,375,GTM,Guatemala,Encounter for Guatemala,1,,Region3,Latin America and the Caribbean,-90.230759,15.783471
11354,376,GTM,Guatemala,Everyone Together for Guatemala,3,,Region3,Latin America and the Caribbean,-90.230759,15.783471
11487,377,GTM,Guatemala,Guatemalan National Revolutionary Unity,2.5,,Region3,Latin America and the Caribbean,-90.230759,15.783471
11488,378,GTM,Guatemala,National Convergence Front,8,C,Region3,Latin America and the Caribbean,-90.230759,15.783471
11622,381,GTM,Guatemala,Patriot Party,8,C,Region3,Latin America and the Caribbean,-90.230759,15.783471
11689,382,GTM,Guatemala,Renewed Democratic Liberty Party,8,C,Region3,Latin America and the Caribbean,-90.230759,15.783471
11822,383,GTM,Guatemala,Vision with Values,9,D,Region3,Latin America and the Caribbean,-90.230759,15.783471
11823,384,GUY,Guyana,People’s Progressive Party – Civic  ,2.5,,Region3,Latin America and the Caribbean,-58.93018,4.860416
11834,385,GUY,Guyana,United Guyana-National Unity (APNU),2.5,,Region3,Latin America and the Caribbean,-58.93018,4.860416
11835,387,HRV,Croatia,Croatian Labourists - Labour Party,1,,Region2,Europe and Central Asia,15.2,45.1
11908,388,HRV,Croatia,Even Stronger Istria Coalition,1.285714286,,Region2,Europe and Central Asia,15.2,45.1
11909,389,HRV,Croatia,For Prime Minister Coalition,3.8,,Region2,Europe and Central Asia,15.2,45.1
11982,390,HRV,Croatia,HDSSB Coalition,6.6,A,Region2,Europe and Central Asia,15.2,45.1
11983,392,HRV,Croatia,Homeland Coalition,8.166666667,C,Region2,Europe and Central Asia,15.2,45.1
12056,394,HRV,Croatia,The Only Option Coalition,3.8,,Region2,Europe and Central Asia,15.2,45.1
12057,395,HRV,Croatia,Turn Croatia Around Coalition,3,,Region2,Europe and Central Asia,15.2,45.1
12094,397,HTI,Haiti,Convention for Democratic Unity,3.5,,Region3,Latin America and the Caribbean,-72.285215,18.971187
12103,399,HTI,Haiti,Haiti in Action,6.5,A,Region3,Latin America and the Caribbean,-72.285215,18.971187
12104,401,HTI,Haiti,Tet Kole sous Chimen Devlopman pou un Nord'Ouest uni et Renonve,4,,Region3,Latin America and the Caribbean,-72.285215,18.971187
12113,403,HTI,Haiti,Patriotic Unity Party,4,,Region3,Latin America and the Caribbean,-72.285215,18.971187
12114,404,HTI,Haiti,Regrouping of Social Democratic Fusion,3.8,,Region3,Latin America and the Caribbean,-72.285215,18.971187
12123,405,HTI,Haiti,Truth,2.666666667,,Region3,Latin America and the Caribbean,-72.285215,18.971187
12124,407,HUN,Hungary,Independents,1.5,,Region2,Europe and Central Asia,19.503304,47.162494
12434,433,IND,India,Yuvajana Sramika Rythu Congress Party,4.636363636,,Region6,South Asia,78.96288,20.593684
12652,434,IRL,Ireland,Anti-Austerity Alliance - People Before Profit,1.588235294,,Region2,Europe and Central Asia,-8.24389,53.41291
12863,435,IRL,Ireland,Fianna Fail,3.692307692,,Region2,Europe and Central Asia,-8.24389,53.41291
12864,436,IRL,Ireland,Fine Gael,3.444444444,,Region2,Europe and Central Asia,-8.24389,53.41291
13075,437,IRL,Ireland,Green Party,1.833333333,,Region2,Europe and Central Asia,-8.24389,53.41291
13076,438,IRL,Ireland,Independent Alliance,4.5,,Region2,Europe and Central Asia,-8.24389,53.41291
13287,439,IRL,Ireland,Independents,7,B,Region2,Europe and Central Asia,-8.24389,53.41291
13288,440,IRL,Ireland,Labour Party,1.611111111,,Region2,Europe and Central Asia,-8.24389,53.41291
13499,441,IRL,Ireland,Renua Ireland,8.142857143,C,Region2,Europe and Central Asia,-8.24389,53.41291
13500,442,IRL,Ireland,Sinn Fein,2.411764706,,Region2,Europe and Central Asia,-8.24389,53.41291
13711,443,IRL,Ireland,Social Democrats,1.470588235,,Region2,Europe and Central Asia,-8.24389,53.41291
13712,444,IRN,Iran,Executives of Construction Party,7,B,Region4,Middle East and North Africa,53.688046,32.427908
13780,446,IRN,Iran,Islamic Iran Participation Front,4,,Region4,Middle East and North Africa,53.688046,32.427908
13848,448,IRQ,Iraq,Fatah Alliance,7,B,Region4,Middle East and North Africa,43.679291,33.223191
13863,450,IRQ,Iraq,Marching Towards Reform,2,,Region4,Middle East and North Africa,43.679291,33.223191
13864,452,IRQ,Iraq,National Coalition,2,,Region4,Middle East and North Africa,43.679291,33.223191
13879,453,IRQ,Iraq,National Wisdom Movement,7,B,Region4,Middle East and North Africa,43.679291,33.223191
13880,455,IRQ,Iraq,State of Law Coalition,7,B,Region4,Middle East and North Africa,43.679291,33.223191
13896,457,IRQ,Iraq,Victory Alliance,7,B,Region4,Middle East and North Africa,43.679291,33.223191
13904,466,ISL,Iceland,Social Democratic Alliance,1.3,,Region2,Europe and Central Asia,-19.020835,64.963051
13975,467,ISR,Israel,Jewish Home,7.7,B,Region4,Middle East and North Africa,34.851612,31.046051
14212,468,ISR,Israel,"Joint List: Hadash, United Arab List, Balad, Taal",4,,Region4,Middle East and North Africa,34.851612,31.046051
14213,469,ISR,Israel,Kulanu/All of Us,3.6,,Region4,Middle East and North Africa,34.851612,31.046051
14450,473,ISR,Israel,United Torah Judaism,9.5,D,Region4,Middle East and North Africa,34.851612,31.046051
14451,474,ISR,Israel,There is a Future,1.538461538,,Region4,Middle East and North Africa,34.851612,31.046051
14688,475,ISR,Israel,Israel is our Home,2.714285714,,Region4,Middle East and North Africa,34.851612,31.046051
14689,476,ISR,Israel,Zionist Bloc,1.7,,Region4,Middle East and North Africa,34.851612,31.046051
14808,478,ITA,Italy,Associative Movement Italians Abroad,3,,Region2,Europe and Central Asia,12.56738,41.87194
15146,483,JAM,Jamaica,Jamaica Labour Party,1.25,,Region3,Latin America and the Caribbean,-77.297508,18.109581
15477,486,JAM,Jamaica,People's National Party,0.25,,Region3,Latin America and the Caribbean,-77.297508,18.109581
15478,489,JOR,Jordan,National Union Party,7,B,Region4,Middle East and North Africa,36.238414,30.585164
15541,490,JOR,Jordan,Stronger Jordan,7,B,Region4,Middle East and North Africa,36.238414,30.585164
15542,491,JOR,Jordan,The Homeland,7,B,Region4,Middle East and North Africa,36.238414,30.585164
15574,492,JPN,Japan,Constitutional Democratic Party of Japan,1.733333333,,Region1,East Asia and the Pacific,138.252924,36.204824
15747,496,JPN,Japan,Nippon Ishin no Kai,6.909090909,A,Region1,East Asia and the Pacific,138.252924,36.204824
15748,497,JPN,Japan,Party of Hope,3,,Region1,East Asia and the Pacific,138.252924,36.204824
15835,503,KAZ,Kazakhstan,Nationwide Social Democratic Party,0,,Region2,Europe and Central Asia,66.923684,48.019573
15871,505,KEN,Kenya,Amani Coalition,6.5,A,Region7,Sub-Saharan Africa,37.906193,-0.023559
15934,506,KEN,Kenya,Chama Cha Uzalendo,10,E,Region7,Sub-Saharan Africa,37.906193,-0.023559
15935,507,KEN,Kenya,Forum for the Restoration of Democracy-People,6,A,Region7,Sub-Saharan Africa,37.906193,-0.023559
15998,508,KEN,Kenya,Independents,10,E,Region7,Sub-Saharan Africa,37.906193,-0.023559
15999,512,KEN,Kenya,Jubilee,5,,Region7,Sub-Saharan Africa,37.906193,-0.023559
16062,509,KEN,Kenya,Kenya African National Union,7.333333333,B,Region7,Sub-Saharan Africa,37.906193,-0.023559
16063,510,KEN,Kenya,Orange Democratic Movement,4.6,,Region7,Sub-Saharan Africa,37.906193,-0.023559
16126,511,KEN,Kenya,Party for Development and Reform,10,E,Region7,Sub-Saharan Africa,37.906193,-0.023559
16127,513,KEN,Kenya,Wiper Democratic Movement - Kenya,4.25,,Region7,Sub-Saharan Africa,37.906193,-0.023559
16159,514,KGZ,Kyrgyzstan,Kyrgyzstan Party,2,,Region2,Europe and Central Asia,74.766098,41.20438
16282,515,KGZ,Kyrgyzstan,Onuguu-Progress,2,,Region2,Europe and Central Asia,74.766098,41.20438
16283,519,KGZ,Kyrgyzstan,Stay United,2,,Region2,Europe and Central Asia,74.766098,41.20438
16345,520,KHM,Cambodia,Cambodian People's Party,4.25,,Region1,East Asia and the Pacific,104.990963,12.565679
16376,521,KHM,Cambodia,League for Democracy Party,5,,Region1,East Asia and the Pacific,104.990963,12.565679
16377,522,KHM,Cambodia,"National United Front for an Independent, Neutral, Peaceful and Cooperative Cambodia ",4.333333333,,Region1,East Asia and the Pacific,104.990963,12.565679
16393,523,KOR,Republic of Korea,Independents,3,,Region1,East Asia and the Pacific,127.766922,35.907757
16630,524,KOR,Republic of Korea,Justice Party,2.333333333,,Region1,East Asia and the Pacific,127.766922,35.907757
16631,525,KOR,Republic of Korea,Minjoo Party,3.125,,Region1,East Asia and the Pacific,127.766922,35.907757
16868,526,KOR,Republic of Korea,New Frontier Party,7,B,Region1,East Asia and the Pacific,127.766922,35.907757
16869,527,KOR,Republic of Korea,People's Party,4,,Region1,East Asia and the Pacific,127.766922,35.907757
16988,528,KWT,Kuwait,Hadas,4,,Region4,Middle East and North Africa,47.481766,29.31166
16989,529,KWT,Kuwait,Islamic Salafi Alliance,9,D,Region4,Middle East and North Africa,47.481766,29.31166
16990,530,KWT,Kuwait,Justice and Peace Alliance,9,D,Region4,Middle East and North Africa,47.481766,29.31166
16991,531,KWT,Kuwait,Kuwait Democratic Forum,1.5,,Region4,Middle East and North Africa,47.481766,29.31166
16992,532,KWT,Kuwait,National Democratic Alliance,1.5,,Region4,Middle East and North Africa,47.481766,29.31166
16993,533,KWT,Kuwait,National Islamic Alliance,7,B,Region4,Middle East and North Africa,47.481766,29.31166
16994,534,KWT,Kuwait,Popular Action Bloc,4,,Region4,Middle East and North Africa,47.481766,29.31166
16995,535,LAO,Laos,Independents,2,,Region1,East Asia and the Pacific,102.495496,19.85627
17004,536,LAO,Laos,Lao People's Revolutionary Party,3.428571429,,Region1,East Asia and the Pacific,102.495496,19.85627
17005,538,LBN,Lebanon,Azm Party,4.5,,Region4,Middle East and North Africa,35.862285,33.854721
17016,539,LBN,Lebanon,Free Patriotic Movement,4.75,,Region4,Middle East and North Africa,35.862285,33.854721
17017,541,LBN,Lebanon,Independents/Others,1.25,,Region4,Middle East and North Africa,35.862285,33.854721
17028,542,LBN,Lebanon,Kataeb-Phalangist Party,2.857142857,,Region4,Middle East and North Africa,35.862285,33.854721
17029,544,LBN,Lebanon,Tadamun Party (Solidarity),5,,Region4,Middle East and North Africa,35.862285,33.854721
17035,548,LBY,Libya,Libyan National Democratic Party,4,,Region4,Middle East and North Africa,17.228331,26.3351
17038,549,LBY,Libya,National Centrist Party,3,,Region4,Middle East and North Africa,17.228331,26.3351
17039,551,LBY,Libya,National Front Party,2,,Region4,Middle East and North Africa,17.228331,26.3351
17051,557,LSO,Lesotho,All Basotho Convention,3.6,,Region7,Sub-Saharan Africa,28.233608,-29.609988
17062,558,LSO,Lesotho,Alliance of Democrats,3.333333333,,Region7,Sub-Saharan Africa,28.233608,-29.609988
17073,559,LSO,Lesotho,Basotho National Party,4.857142857,,Region7,Sub-Saharan Africa,28.233608,-29.609988
17084,560,LSO,Lesotho,Basutoland Congress Party,3.666666667,,Region7,Sub-Saharan Africa,28.233608,-29.609988
17095,561,LSO,Lesotho,Democratic Congress,3.166666667,,Region7,Sub-Saharan Africa,28.233608,-29.609988
17106,562,LSO,Lesotho,Lesotho Congress for Democracy,4.2,,Region7,Sub-Saharan Africa,28.233608,-29.609988
17117,563,LSO,Lesotho,Movement for Economic Change,3.4,,Region7,Sub-Saharan Africa,28.233608,-29.609988
17128,564,LSO,Lesotho,National Independent Party,7,B,Region7,Sub-Saharan Africa,28.233608,-29.609988
17139,565,LSO,Lesotho,Popular Front for Democracy,3,,Region7,Sub-Saharan Africa,28.233608,-29.609988
17150,566,LSO,Lesotho,Reformed Congress of Lesotho,2.833333333,,Region7,Sub-Saharan Africa,28.233608,-29.609988
17161,568,LTU,Lithuania,Independents,6,A,Region2,Europe and Central Asia,23.881275,55.169438
17390,569,LTU,Lithuania,Labor Party,6.666666667,A,Region2,Europe and Central Asia,23.881275,55.169438
17391,570,LTU,Lithuania,Liberal Movement,1.75,,Region2,Europe and Central Asia,23.881275,55.169438
17620,571,LTU,Lithuania,Lithuanian Center Party,7,B,Region2,Europe and Central Asia,23.881275,55.169438
17621,577,LUX,Luxembourg,Alternative Democratic Reform Party,3,,Region2,Europe and Central Asia,6.129583,49.815273
17824,578,LUX,Luxembourg,Christian Social People's Party,2.5,,Region2,Europe and Central Asia,6.129583,49.815273
17825,579,LUX,Luxembourg,Communist Party of Luxembourg,2,,Region2,Europe and Central Asia,6.129583,49.815273
18027,580,LUX,Luxembourg,Democratic Party,2,,Region2,Europe and Central Asia,6.129583,49.815273
18130,581,LUX,Luxembourg,Luxembourg Socialist Workers' Party,1.5,,Region2,Europe and Central Asia,6.129583,49.815273
18131,582,LUX,Luxembourg,Party for Complete Democracy,2,,Region2,Europe and Central Asia,6.129583,49.815273
18334,583,LUX,Luxembourg,Pirate Party,1.5,,Region2,Europe and Central Asia,6.129583,49.815273
18335,584,LUX,Luxembourg,The Green Alternative,3.666666667,,Region2,Europe and Central Asia,6.129583,49.815273
18538,585,LUX,Luxembourg,The Left,1,,Region2,Europe and Central Asia,6.129583,49.815273
18539,586,LVA,Latvia,For Development/For!,1.666666667,,Region2,Europe and Central Asia,24.603189,56.879635
18756,587,LVA,Latvia,From the Heart for Latvia,3.333333333,,Region2,Europe and Central Asia,24.603189,56.879635
18757,588,LVA,Latvia,Harmony,2.666666667,,Region2,Europe and Central Asia,24.603189,56.879635
18974,589,LVA,Latvia,Latvian Association of Regions,4.5,,Region2,Europe and Central Asia,24.603189,56.879635
18975,591,LVA,Latvia,New Unity,2.571428571,,Region2,Europe and Central Asia,24.603189,56.879635
19192,592,LVA,Latvia,The New Conservative Party,5.428571429,,Region2,Europe and Central Asia,24.603189,56.879635
19193,593,LVA,Latvia,Union of Greens and Farmers,3.5,,Region2,Europe and Central Asia,24.603189,56.879635
19410,594,LVA,Latvia,Who Owns the State,2.333333333,,Region2,Europe and Central Asia,24.603189,56.879635
19411,595,MAC,North Macedonia,Alliance of Albanians,8,C,Region2,Europe and Central Asia,113.543873,22.198745
19412,596,MAC,North Macedonia,Besa Movement,8,C,Region2,Europe and Central Asia,113.543873,22.198745
19413,597,MAC,North Macedonia,Democratic Party of Albanians,7.5,B,Region2,Europe and Central Asia,113.543873,22.198745
19414,598,MAC,North Macedonia,Democratic Union for Integration,8,C,Region2,Europe and Central Asia,113.543873,22.198745
19415,599,MAC,North Macedonia,Internal Macedonian Revolutionary Organization-Democratic Party for Macedonian Nati,5.2,,Region2,Europe and Central Asia,113.543873,22.198745
19416,603,MAR,Morocco,Democratic and Social Movement,1,,Region4,Middle East and North Africa,-7.09262,31.791702
19437,604,MAR,Morocco,Federation of the Democratic Left,0.666666667,,Region4,Middle East and North Africa,-7.09262,31.791702
19458,612,MDA,Moldova,Liberal Democratic Party,4,,Region2,Europe and Central Asia,28.369885,47.411631
19511,616,MDG,Madagascar,Andrin Ny Madagasikara,0,,Region7,Sub-Saharan Africa,46.869107,-18.766947
19546,617,MDG,Madagascar,Antoko Maitso,1.5,,Region7,Sub-Saharan Africa,46.869107,-18.766947
19547,618,MDG,Madagascar,Economic Liberalism and Democratic Action for National Recovery,1.333333333,,Region7,Sub-Saharan Africa,46.869107,-18.766947
19582,619,MDG,Madagascar,Hiaraka Isika,0,,Region7,Sub-Saharan Africa,46.869107,-18.766947
19583,620,MDG,Madagascar,Independents and Minor Parties,1,,Region7,Sub-Saharan Africa,46.869107,-18.766947
19618,621,MDG,Madagascar,Ravalomanana Movement,1.25,,Region7,Sub-Saharan Africa,46.869107,-18.766947
19619,622,MDG,Madagascar,Sambo Fiaran I Noe,2,,Region7,Sub-Saharan Africa,46.869107,-18.766947
19655,624,MDG,Madagascar,Vondrona Politika Miara dia Malagasy Miara Miainga,1,,Region7,Sub-Saharan Africa,46.869107,-18.766947
19690,625,MDG,Madagascar,With President Andry Rajoelina,2.4,,Region7,Sub-Saharan Africa,46.869107,-18.766947
19691,626,MDV,Maldives,Adhaalath Party,8.25,C,Region6,South Asia,73.22068,3.202778
19706,627,MDV,Maldives,Jumhooree Party,5.5,,Region6,South Asia,73.22068,3.202778
19707,628,MDV,Maldives,Maldives Development Alliance,6,A,Region6,South Asia,73.22068,3.202778
19722,629,MDV,Maldives,Maldivian Democratic Party,2,,Region6,South Asia,73.22068,3.202778
19723,630,MDV,Maldives,Progressive Party of Maldives,4.666666667,,Region6,South Asia,73.22068,3.202778
19731,632,MEX,Mexico,Independent,1,,Region3,Latin America and the Caribbean,-102.552784,23.634501
19954,639,MEX,Mexico,Partido Humanista,8,C,Region3,Latin America and the Caribbean,-102.552784,23.634501
20213,650,MLT,Malta,Forza Nazzjonali,2.666666667,,Region2,Europe and Central Asia,14.375416,35.937496
20262,651,MLT,Malta,Malta Labor Party,2.9,,Region2,Europe and Central Asia,14.375416,35.937496
20263,652,MMR,Myanmar,Arakan National Party,3.6,,Region1,East Asia and the Pacific,95.956223,21.913965
20274,653,MMR,Myanmar,Kachin State Democracy Party,2,,Region1,East Asia and the Pacific,95.956223,21.913965
20275,654,MMR,Myanmar,Kokang Democracy and Unity Party,2.75,,Region1,East Asia and the Pacific,95.956223,21.913965
20286,655,MMR,Myanmar,Lisu National Development Party,3,,Region1,East Asia and the Pacific,95.956223,21.913965
20287,656,MMR,Myanmar,National League for Democracy,2.142857143,,Region1,East Asia and the Pacific,95.956223,21.913965
20298,657,MMR,Myanmar,Pa-O National Organization,2.5,,Region1,East Asia and the Pacific,95.956223,21.913965
20299,658,MMR,Myanmar,Shan Nationalities League for Democracy,2.5,,Region1,East Asia and the Pacific,95.956223,21.913965
20310,659,MMR,Myanmar,Ta-Arng Nationality Party,3,,Region1,East Asia and the Pacific,95.956223,21.913965
20311,660,MMR,Myanmar,Union Solidarity and Development Party,4.6,,Region1,East Asia and the Pacific,95.956223,21.913965
20322,661,MMR,Myanmar,Zomi Congress for Democracy,2.75,,Region1,East Asia and the Pacific,95.956223,21.913965
20323,663,MNE,Montenegro,Bosniak Party,7.5,B,Region2,Europe and Central Asia,19.37439,42.708678
20333,664,MNE,Montenegro,Croatian Civic Initiative,4,,Region2,Europe and Central Asia,19.37439,42.708678
20343,665,MNE,Montenegro,Democratic Front,9,D,Region2,Europe and Central Asia,19.37439,42.708678
20353,666,MNE,Montenegro,Democratic Montenegro,5,,Region2,Europe and Central Asia,19.37439,42.708678
20363,668,MNE,Montenegro,Key Coalition,4,,Region2,Europe and Central Asia,19.37439,42.708678
20373,670,MNE,Montenegro,Social Democrats of Montenegro,0.666666667,,Region2,Europe and Central Asia,19.37439,42.708678
20383,671,MNG,Mongolia,Democratic Party,4,,Region1,East Asia and the Pacific,103.846656,46.862496
20408,672,MNG,Mongolia,Independents,4,,Region1,East Asia and the Pacific,103.846656,46.862496
20409,673,MNG,Mongolia,Mongolian People's Revolutionary Party,5.75,,Region1,East Asia and the Pacific,103.846656,46.862496
20434,674,MNG,Mongolia,Mongolian People’s Party,4.5,,Region1,East Asia and the Pacific,103.846656,46.862496
20435,675,MOZ,Mozambique,Mozambican Liberation Front,4,,Region7,Sub-Saharan Africa,35.529562,-18.665695
20467,677,MOZ,Mozambique,Mozambique Democratic Movement,5.5,,Region7,Sub-Saharan Africa,35.529562,-18.665695
20483,678,MRT,Mauritania,National Rally for Reform and Development,8,C,Region7,Sub-Saharan Africa,-10.940835,21.00789
20513,680,MRT,Mauritania,Union for the Republic,8,C,Region7,Sub-Saharan Africa,-10.940835,21.00789
20528,681,MUS,Mauritius,Militant Socialist Movement (Mouvement Socialist Mauricien) - Maurition Social Demo,3,,Region7,Sub-Saharan Africa,57.552152,-20.348404
20551,682,MUS,Mauritius,Rodrigues People's Organisation,2.75,,Region7,Sub-Saharan Africa,57.552152,-20.348404
20552,683,MUS,Mauritius,The Labor Party - Mauritian Militant Movement,3,,Region7,Sub-Saharan Africa,57.552152,-20.348404
20564,684,MWI,Malawi,Alliance for Democracy,4,,Region7,Sub-Saharan Africa,34.301525,-13.254308
20595,685,MWI,Malawi,Democratic Progressive Party,3,,Region7,Sub-Saharan Africa,34.301525,-13.254308
20596,686,MWI,Malawi,Independents,2,,Region7,Sub-Saharan Africa,34.301525,-13.254308
20627,687,MWI,Malawi,Malawi Congress Party,3.75,,Region7,Sub-Saharan Africa,34.301525,-13.254308
20628,688,MWI,Malawi,People's Party,2.833333333,,Region7,Sub-Saharan Africa,34.301525,-13.254308
20659,689,MWI,Malawi,United Democratic Front,3,,Region7,Sub-Saharan Africa,34.301525,-13.254308
20660,690,MWI,Malawi,United Transformation Unit,2,,Region7,Sub-Saharan Africa,34.301525,-13.254308
20676,691,MYS,Malaysia,Alliance of Hope,2.7,,Region1,East Asia and the Pacific,101.975766,4.210484
20775,692,MYS,Malaysia,Independents,4,,Region1,East Asia and the Pacific,101.975766,4.210484
20776,695,MYS,Malaysia,Sabah Heritage Party,4.2,,Region1,East Asia and the Pacific,101.975766,4.210484
20826,696,NAM,Namibia,All People's Party,0,,Region7,Sub-Saharan Africa,18.49041,-22.95764
20843,697,NAM,Namibia,Democratic Turnhalle Alliance of Namibia,4,,Region7,Sub-Saharan Africa,18.49041,-22.95764
20844,698,NAM,Namibia,Rally of Democracy and Progress,0,,Region7,Sub-Saharan Africa,18.49041,-22.95764
20861,699,NAM,Namibia,SWAPO Party of Namibia,3,,Region7,Sub-Saharan Africa,18.49041,-22.95764
20862,700,NAM,Namibia,United Democratic Front,2,,Region7,Sub-Saharan Africa,18.49041,-22.95764
20871,703,NGA,Nigeria,African Peoples Alliance,2.333333333,,Region7,Sub-Saharan Africa,8.675277,9.081999
20938,706,NGA,Nigeria,Allied Congress Party of Nigeria ,2,,Region7,Sub-Saharan Africa,8.675277,9.081999
20939,707,NGA,Nigeria,Citizens Popular Party,2,,Region7,Sub-Saharan Africa,8.675277,9.081999
21006,710,NGA,Nigeria,Peoples Party of Nigeria,2,,Region7,Sub-Saharan Africa,8.675277,9.081999
21082,712,NIC,Nicaragua,Conservative Party of Nicaragua,3.5,,Region3,Latin America and the Caribbean,-85.207229,12.865416
21083,713,NIC,Nicaragua,Independent Liberal Party,3.5,,Region3,Latin America and the Caribbean,-85.207229,12.865416
21158,714,NIC,Nicaragua,Liberal Constitutionalist Party,3.5,,Region3,Latin America and the Caribbean,-85.207229,12.865416
21234,716,NIC,Nicaragua,Sandinista National Liberation Front,1.666666667,,Region3,Latin America and the Caribbean,-85.207229,12.865416
21235,737,NPL,Nepal,Communist Party of Nepal,2.8,,Region6,South Asia,84.124008,28.394857
21250,736,NPL,Nepal,Communist Party of Nepal (Maoist Centre),2.666666667,,Region6,South Asia,84.124008,28.394857
21251,738,NPL,Nepal,"Federal Socialist Forum, Nepal",3.888888889,,Region6,South Asia,84.124008,28.394857
21266,744,NPL,Nepal,National Democracy Party,4.333333333,,Region6,South Asia,84.124008,28.394857
21267,743,NPL,Nepal,National Janata Party,3,,Region6,South Asia,84.124008,28.394857
21282,742,NPL,Nepal,National People's Front,3.625,,Region6,South Asia,84.124008,28.394857
21283,740,NPL,Nepal,Nepal Worker's Peasants Party,3.75,,Region6,South Asia,84.124008,28.394857
21298,741,NPL,Nepal,Nepali Congress,2.571428571,,Region6,South Asia,84.124008,28.394857
21299,739,NPL,Nepal,New Power Party,2.5,,Region6,South Asia,84.124008,28.394857
21307,751,PAK,Pakistan,Balochistan Awami Party,5,,Region6,South Asia,69.345116,30.375321
21433,752,PAK,Pakistan,Grand Democratic Alliance,4.333333333,,Region6,South Asia,69.345116,30.375321
21559,760,PAN,Panama,Democratic Change,5,,Region3,Latin America and the Caribbean,-80.782127,8.537981
21868,761,PAN,Panama,Democratic Revolutionary Party,3,,Region3,Latin America and the Caribbean,-80.782127,8.537981
21869,762,PAN,Panama,Independents,3,,Region3,Latin America and the Caribbean,-80.782127,8.537981
22178,763,PAN,Panama,Liberal Republican Nationalist Movement,3,,Region3,Latin America and the Caribbean,-80.782127,8.537981
22179,764,PAN,Panama,Panemeñista Party,3.333333333,,Region3,Latin America and the Caribbean,-80.782127,8.537981
22334,769,PER,Peru,Popular Alliance,3.5,,Region3,Latin America and the Caribbean,-75.015152,-9.189967
22491,777,PHL,Philippines,United Nationalist Alliance ,4.8,,Region1,East Asia and the Pacific,121.774017,12.879721
22548,778,PNG,Papua New Guinea,National Alliance Party,5.5,,Region1,East Asia and the Pacific,143.95555,-6.314993
22551,779,PNG,Papua New Guinea,Pangu Party,5.5,,Region1,East Asia and the Pacific,143.95555,-6.314993
22552,780,PNG,Papua New Guinea,Papua New Guinea Party,10,E,Region1,East Asia and the Pacific,143.95555,-6.314993
22555,781,PNG,Papua New Guinea,People's Labour Party,10,E,Region1,East Asia and the Pacific,143.95555,-6.314993
22556,782,PNG,Papua New Guinea,People's National Congress,5.5,,Region1,East Asia and the Pacific,143.95555,-6.314993
22559,783,PNG,Papua New Guinea,People's Progress Party,10,E,Region1,East Asia and the Pacific,143.95555,-6.314993
22560,784,PNG,Papua New Guinea,PNG National Party,10,E,Region1,East Asia and the Pacific,143.95555,-6.314993
22563,785,PNG,Papua New Guinea,Social Democratic Party,0.5,,Region1,East Asia and the Pacific,143.95555,-6.314993
22564,786,PNG,Papua New Guinea,Triumph Heritage Empowerment Rural Party,3.75,,Region1,East Asia and the Pacific,143.95555,-6.314993
22567,787,PNG,Papua New Guinea,United Resources Party,10,E,Region1,East Asia and the Pacific,143.95555,-6.314993
22568,789,POL,Poland,Independents,3,,Region2,Europe and Central Asia,19.145136,51.919438
22766,792,PRT,Portugal,Democratic Unity Coalition,1.5,,Region2,Europe and Central Asia,-8.224454,39.399872
22929,793,PRT,Portugal,Left Bloc,0.625,,Region2,Europe and Central Asia,-8.224454,39.399872
22930,794,PRT,Portugal,People-Animals-Nature,1,,Region2,Europe and Central Asia,-8.224454,39.399872
23093,795,PRT,Portugal,Portugal Ahead,2.8,,Region2,Europe and Central Asia,-8.224454,39.399872
23094,796,PRT,Portugal,Socialist Party,1.142857143,,Region2,Europe and Central Asia,-8.224454,39.399872
23176,797,PRY,Paraguay,Authentic Liberal Radical Party,6.857142857,A,Region3,Latin America and the Caribbean,-58.443832,-23.442503
23395,798,PRY,Paraguay,Beloved Fatherland,7.777777778,B,Region3,Latin America and the Caribbean,-58.443832,-23.442503
23396,799,PRY,Paraguay,Green Party,2.2,,Region3,Latin America and the Caribbean,-58.443832,-23.442503
23506,800,PRY,Paraguay,Let's Do It,7,B,Region3,Latin America and the Caribbean,-58.443832,-23.442503
23725,801,PRY,Paraguay,National Crusade Movement,7,B,Region3,Latin America and the Caribbean,-58.443832,-23.442503
23726,802,PRY,Paraguay,National Encounter Party,3.916666667,,Region3,Latin America and the Caribbean,-58.443832,-23.442503
23945,803,PRY,Paraguay,National Republican Association - Colorado Party,7.5,B,Region3,Latin America and the Caribbean,-58.443832,-23.442503
23955,826,SDN,Sudan,Democratic Unionist Party (led by Jalal al-Digair),4,,Region7,Sub-Saharan Africa,30.217636,12.862807
23964,827,SDN,Sudan,Independents/Other Parties,0,,Region7,Sub-Saharan Africa,30.217636,12.862807
23973,828,SDN,Sudan,National Congress,10,E,Region7,Sub-Saharan Africa,30.217636,12.862807
23982,829,SGP,Singapore,Independent,4,,Region1,East Asia and the Pacific,103.819836,1.352083
24095,830,SGP,Singapore,National Solidarity Party,2.666666667,,Region1,East Asia and the Pacific,103.819836,1.352083
24096,832,SGP,Singapore,People's Power Party,3,,Region1,East Asia and the Pacific,103.819836,1.352083
24209,833,SGP,Singapore,Reform Party,3,,Region1,East Asia and the Pacific,103.819836,1.352083
24210,834,SGP,Singapore,Singapore Democratic Alliance,3.5,,Region1,East Asia and the Pacific,103.819836,1.352083
24323,836,SGP,Singapore,Singapore People’s Party,3,,Region1,East Asia and the Pacific,103.819836,1.352083
24324,837,SGP,Singapore,Singaporeans First,2,,Region1,East Asia and the Pacific,103.819836,1.352083
24395,846,SLE,Sierra Leone,All People's Congress ,7,B,Region7,Sub-Saharan Africa,-11.779889,8.460555
24451,850,SLE,Sierra Leone,Sierra Leone People's Party,7,B,Region7,Sub-Saharan Africa,-11.779889,8.460555
24465,855,SLV,El Salvador,Grand Alliance for National Unity,7.5,B,Region3,Latin America and the Caribbean,-88.89653,13.794185
24582,861,SOM,Somalia,Democratic Party of Somalia,9,D,Region7,Sub-Saharan Africa,46.199616,5.152149
24584,863,SOM,Somalia,Peace and Development Party,5.5,,Region7,Sub-Saharan Africa,46.199616,5.152149
24587,866,SOM,Somalia,Somalia Green Party,1.5,,Region7,Sub-Saharan Africa,46.199616,5.152149
24588,867,SOM,Somalia,Tayo Party,6,A,Region7,Sub-Saharan Africa,46.199616,5.152149
24589,868,SRB,Serbia,Coalition for a Better Serbia,1.666666667,,Region2,Europe and Central Asia,21.005859,44.016521
24638,875,STP,Sao Tome and Principe,Force for Change Democratic Movement - Democratic Convergence Party,4.5,,Region7,Sub-Saharan Africa,6.613081,0.18636
24641,876,STP,Sao Tome and Principe,Independent Democratic Action,4.5,,Region7,Sub-Saharan Africa,6.613081,0.18636
24643,877,STP,Sao Tome and Principe,Movement for the Liberation of Sao Tome and Principe-Social Democratic Party,4.5,,Region7,Sub-Saharan Africa,6.613081,0.18636
24644,878,STP,Sao Tome and Principe,Sao Tome and Principe Independent Citizen Movement Party,4.5,,Region7,Sub-Saharan Africa,6.613081,0.18636
24646,879,SUR,Suriname,A Combination,3,,Region3,Latin America and the Caribbean,-56.027783,3.919305
24654,880,SUR,Suriname,National Democratic Party,4,,Region3,Latin America and the Caribbean,-56.027783,3.919305
24662,881,SUR,Suriname,Party for Democracy and Development through Unity,2,,Region3,Latin America and the Caribbean,-56.027783,3.919305
24670,882,SUR,Suriname,Progressive Reform Party,3.5,,Region3,Latin America and the Caribbean,-56.027783,3.919305
24678,883,SUR,Suriname,Progressive Workers' and Farmers' Union,4.5,,Region3,Latin America and the Caribbean,-56.027783,3.919305
24686,895,SVN,Slovenia,List of Marjan Sarec,3.1,,Region2,Europe and Central Asia,14.995463,46.151241
24829,905,SWE,Sweden,Liberal Party,1.47826087,,Region2,Europe and Central Asia,18.643501,60.128161
25032,910,SWZ,Eswatini,Communist Party,2,,Region7,Sub-Saharan Africa,31.465866,-26.522503
25039,911,SWZ,Eswatini,Ngwane National Liberatory Congress,1.5,,Region7,Sub-Saharan Africa,31.465866,-26.522503
25043,912,SWZ,Eswatini,People's United Democratic Movement,0.333333333,,Region7,Sub-Saharan Africa,31.465866,-26.522503
25044,913,SYR,Syrian Arab Republic,Independents,7,B,Region4,Middle East and North Africa,38.996815,34.802075
25047,914,SYR,Syrian Arab Republic,National Progressive Front,5,,Region4,Middle East and North Africa,38.996815,34.802075
25049,915,SYR,Syrian Arab Republic,Popular Front for Change and Liberation,5.666666667,,Region4,Middle East and North Africa,38.996815,34.802075
25050,916,TCD,Chad,Chadian Convention for Peace and Development,4,,Region7,Sub-Saharan Africa,18.732207,15.454166
25061,917,TCD,Chad,Democratic and Socialist Party for Alternation,4,,Region7,Sub-Saharan Africa,18.732207,15.454166
25062,918,TCD,Chad,Federation Action for the Republic,4,,Region7,Sub-Saharan Africa,18.732207,15.454166
25073,919,TCD,Chad,National Rally for Democracy in Chad,4,,Region7,Sub-Saharan Africa,18.732207,15.454166
25074,920,TCD,Chad,National Rally for Development and Progress,4,,Region7,Sub-Saharan Africa,18.732207,15.454166
25085,921,TCD,Chad,National Union for Democracy and Renewal,3,,Region7,Sub-Saharan Africa,18.732207,15.454166
25086,922,TCD,Chad,Party for Unity and Reconstruction,4,,Region7,Sub-Saharan Africa,18.732207,15.454166
25097,923,TCD,Chad,Patriotic Salvation Movement,3,,Region7,Sub-Saharan Africa,18.732207,15.454166
25098,924,TCD,Chad,Rally for Democracy and Progress,4,,Region7,Sub-Saharan Africa,18.732207,15.454166
25109,925,TCD,Chad,Union for Renewal and Democracy,4,,Region7,Sub-Saharan Africa,18.732207,15.454166
25126,933,THA,Thailand,Future Forward,0,,Region1,East Asia and the Pacific,100.992541,15.870032
25238,934,THA,Thailand,New Economics Party,6,A,Region1,East Asia and the Pacific,100.992541,15.870032
25350,935,THA,Thailand,Palang Pracharat Party,8.5,C,Region1,East Asia and the Pacific,100.992541,15.870032
25462,937,THA,Thailand,Prachachart Party,9,D,Region1,East Asia and the Pacific,100.992541,15.870032
25574,939,THA,Thailand,Thai Liberal Party,5.5,,Region1,East Asia and the Pacific,100.992541,15.870032
25686,940,TJK,Tajikistan,Agrarian Party of Tajikistan,3.333333333,,Region2,Europe and Central Asia,71.276093,38.861034
25700,941,TJK,Tajikistan,Communist Party of Tajikistan,2.666666667,,Region2,Europe and Central Asia,71.276093,38.861034
25714,942,TJK,Tajikistan,Party of Economic Reforms,2.666666667,,Region2,Europe and Central Asia,71.276093,38.861034
25728,943,TJK,Tajikistan,People's Democratic Party,3,,Region2,Europe and Central Asia,71.276093,38.861034
25742,944,TJK,Tajikistan,The Socialist Party,2,,Region2,Europe and Central Asia,71.276093,38.861034
25792,948,TLS,Timor Leste,Change for Progress Alliance,4.333333333,,Region1,East Asia and the Pacific,125.727539,-8.874217
25797,949,TLS,Timor Leste,Democratic Development Front,5,,Region1,East Asia and the Pacific,125.727539,-8.874217
25798,950,TLS,Timor Leste,Hope of the Fatherland Party,8,C,Region1,East Asia and the Pacific,125.727539,-8.874217
25803,951,TLS,Timor Leste,National Development Movement,3,,Region1,East Asia and the Pacific,125.727539,-8.874217
25804,952,TLS,Timor Leste,Republican Party,6,A,Region1,East Asia and the Pacific,125.727539,-8.874217
25809,953,TLS,Timor Leste,Revolutionary Front for an Independent East Timor,2.6,,Region1,East Asia and the Pacific,125.727539,-8.874217
25810,954,TLS,Timor Leste,Social Democratic Movement,2,,Region1,East Asia and the Pacific,125.727539,-8.874217
25815,955,TLS,Timor Leste,Timorese Democratic Party,3.6,,Region1,East Asia and the Pacific,125.727539,-8.874217
25816,956,TTO,Trinidad and Tobago,Congress of the People,8,C,Region3,Latin America and the Caribbean,-61.222503,10.691803
25845,957,TTO,Trinidad and Tobago,People's National Movement,8,C,Region3,Latin America and the Caribbean,-61.222503,10.691803
25846,958,TTO,Trinidad and Tobago,United National Congress,9,D,Region3,Latin America and the Caribbean,-61.222503,10.691803
25861,971,TWN,Taiwan,Green-Social Democratic Coalition,1,,Region1,East Asia and the Pacific,120.960515,23.69781
26064,974,TWN,Taiwan,Non-Partisan Solidarity Union,8.5,C,Region1,East Asia and the Pacific,120.960515,23.69781
26267,978,TZA,Tanzania,Alliance for Change and Transparency,2.6,,Region7,Sub-Saharan Africa,34.888822,-6.369028
26290,984,UGA,Uganda,Forum for Democratic Change,3.8,,Region7,Sub-Saharan Africa,32.290275,1.373333
26351,985,UGA,Uganda,Independents,4.666666667,,Region7,Sub-Saharan Africa,32.290275,1.373333
26352,988,UGA,Uganda,Uganda People's Defense Force,3,,Region7,Sub-Saharan Africa,32.290275,1.373333
26383,989,UKR,Ukraine,All-Ukrainian Union 'Fatherland',3.875,,Region2,Europe and Central Asia,31.16558,48.379433
26504,990,UKR,Ukraine,Opposition Bloc,5.666666667,,Region2,Europe and Central Asia,31.16558,48.379433
26505,991,UKR,Ukraine,People's Front,3.857142857,,Region2,Europe and Central Asia,31.16558,48.379433
26626,992,UKR,Ukraine,Petro Poroshenko Bloc,3.375,,Region2,Europe and Central Asia,31.16558,48.379433
26627,993,UKR,Ukraine,Radical Party of Oleh Lyashko,5.5,,Region2,Europe and Central Asia,31.16558,48.379433
26748,994,UKR,Ukraine,Self Reliance Party,3.714285714,,Region2,Europe and Central Asia,31.16558,48.379433
26749,999,URY,Uruguay,Popular Assembly,2.625,,Region3,Latin America and the Caribbean,-55.765835,-32.522779
26975,1006,VEN,Venezuela,Democratic Unity Roundtable,3.625,,Region3,Latin America and the Caribbean,-66.58973,6.42375
27258,1007,VEN,Venezuela,Others,3.75,,Region3,Latin America and the Caribbean,-66.58973,6.42375
27259,1008,VEN,Venezuela,United Socialist Party of Venezuela/Great Patriotic Pole,4.666666667,,Region3,Latin America and the Caribbean,-66.58973,6.42375
27401,1009,VNM,Viet Nam,Communist Party,2.833333333,,Region1,East Asia and the Pacific,108.277199,14.058324
27435,1012,VUT,Vanuatu,Land and Justice Party,0.666666667,,Region1,East Asia and the Pacific,166.959158,-15.376706
27436,1011,VUT,Vanuatu,Lauko Group,9,D,Region1,East Asia and the Pacific,166.959158,-15.376706
27439,1015,VUT,Vanuatu,National United Party,8,C,Region1,East Asia and the Pacific,166.959158,-15.376706
27440,1016,VUT,Vanuatu,Our Land Party,4,,Region1,East Asia and the Pacific,166.959158,-15.376706
27441,1017,VUT,Vanuatu,Peoples Progressive Party,9,D,Region1,East Asia and the Pacific,166.959158,-15.376706
27442,1018,VUT,Vanuatu,Reunification of Movements for Change,5.5,,Region1,East Asia and the Pacific,166.959158,-15.376706
27443,1019,VUT,Vanuatu,Union of Moderate Parties,8,C,Region1,East Asia and the Pacific,166.959158,-15.376706
27445,1021,WSM,Samoa,Human Rights Protection Party,1.5,,Region1,East Asia and the Pacific,-172.104629,-13.759029
27450,1022,WSM,Samoa,Tautua Samoa Party,2,,Region1,East Asia and the Pacific,-172.104629,-13.759029
27451,1023,YEM,Yemen,al-Haqq Party,9,D,Region4,Middle East and North Africa,48.516388,15.552727
27458,1025,YEM,Yemen,Arab Socialist Ba'ath Party,7,B,Region4,Middle East and North Africa,48.516388,15.552727
27459,1028,YEM,Yemen,Hizb ut-Tahrir,7.5,B,Region4,Middle East and North Africa,48.516388,15.552727
27466,1029,YEM,Yemen,Nasserist Reform Organization,7,B,Region4,Middle East and North Africa,48.516388,15.552727
27471,1034,ZAF,South Africa,African Independent Congress,3.75,,Region7,Sub-Saharan Africa,22.937506,-30.559482
27524,1041,ZAF,South Africa,National Freedom Party,1.4,,Region7,Sub-Saharan Africa,22.937506,-30.559482
27577,1043,ZMB,Zambia,Forum for Democracy and Development Party,4.666666667,,Region7,Sub-Saharan Africa,27.849332,-13.133897
27625,1047,ZMB,Zambia,United Party for National Development,4,,Region7,Sub-Saharan Africa,27.849332,-13.133897
27649,1048,ZWE,Zimbabwe,Independents,3.666666667,,Region7,Sub-Saharan Africa,29.154857,-19.015438
27670,1050,ZWE,Zimbabwe,Movement for Democratic Change Ncube,4.285714286,,Region7,Sub-Saharan Africa,29.154857,-19.015438
27671,16,ALB,Albania,Socialist Party of Albania,2.083333333,,Region2,Europe and Central Asia,20.168331,41.153332
27676,11,ALB,Albania,Democratic Party of Albania,2.909090909,,Region2,Europe and Central Asia,20.168331,41.153332
27682,14,ALB,Albania,Social Democratic Party of Albania,2.8,,Region2,Europe and Central Asia,20.168331,41.153332
27702,15,ALB,Albania,Socialist Movement for Integration,2.545454545,,Region2,Europe and Central Asia,20.168331,41.153332
27711,13,ALB,Albania,"Party for Justice, Integration and Unity",2.4,,Region2,Europe and Central Asia,20.168331,41.153332
27717,12,ALB,Albania,Libra Party,2.25,,Region2,Europe and Central Asia,20.168331,41.153332
27725,260,DZA,Algeria,National Liberation Front,5,,Region4,Middle East and North Africa,1.659626,28.033886
27730,258,DZA,Algeria,Nadha-Adala-Bina,8,C,Region4,Middle East and North Africa,1.659626,28.033886
27734,259,DZA,Algeria,National Democratic Rally,4.8,,Region4,Middle East and North Africa,1.659626,28.033886
27737,257,DZA,Algeria,HMS Alliance,6.666666667,A,Region4,Middle East and North Africa,1.659626,28.033886
27785,45,AZE,Azerbaijan,New Azerbaijan Party,0,,Region2,Europe and Central Asia,47.576927,40.143105
27986,18,ARG,Argentina,Citizen's Unity,2.307692308,,Region3,Latin America and the Caribbean,-63.616672,-38.416097
28167,17,ARG,Argentina,Cambiemos,4.1,,Region3,Latin America and the Caribbean,-63.616672,-38.416097
28355,22,ARG,Argentina,Justicialist Party,4.571428571,,Region3,Latin America and the Caribbean,-63.616672,-38.416097
28601,31,AUS,Australia,Australian Labor Party,1.769230769,,Region1,East Asia and the Pacific,133.775136,-25.274398
28602,35,AUS,Australia,Liberal Party of Australia,3.25,,Region1,East Asia and the Pacific,133.775136,-25.274398
29081,36,AUS,Australia,National Party of Australia,4.666666667,,Region1,East Asia and the Pacific,133.775136,-25.274398
29082,30,AUS,Australia,Australia Greens,1.153846154,,Region1,East Asia and the Pacific,133.775136,-25.274398
29563,32,AUS,Australia,Independent,2,,Region1,East Asia and the Pacific,133.775136,-25.274398
29569,42,AUT,Austria,Social Democratic Party of Austria,1.842105263,,Region2,Europe and Central Asia,14.550072,47.516231
29750,38,AUT,Austria,Austrian People's Party,5.090909091,,Region2,Europe and Central Asia,14.550072,47.516231
29751,39,AUT,Austria,Freedom Party of Austria,8.533333333,C,Region2,Europe and Central Asia,14.550072,47.516231
29932,43,AUT,Austria,The Greens – The Green Alternative,0.619047619,,Region2,Europe and Central Asia,14.550072,47.516231
29933,40,AUT,Austria,NEOS – The New Austria ,1.4,,Region2,Europe and Central Asia,14.550072,47.516231
30114,41,AUT,Austria,Peter Pilz List ,2.333333333,,Region2,Europe and Central Asia,14.550072,47.516231
30116,79,BGD,Bangladesh,Bangladesh Awami League,2.333333333,,Region6,South Asia,90.356331,23.684994
30233,80,BGD,Bangladesh,Bangladesh Nationalist Party,4,,Region6,South Asia,90.356331,23.684994
30234,82,BGD,Bangladesh,Jatiya Party,2.6,,Region6,South Asia,90.356331,23.684994
30314,29,ARM,Armenia,Prosperous Armenia,6.888888889,A,Region2,Europe and Central Asia,45.038189,40.069099
30383,97,BIH,Bosnia and Herzegovina,Alliance of Independent Social Democrats,4,,Region2,Europe and Central Asia,17.679076,43.915886
30385,104,BIH,Bosnia and Herzegovina,SDS-NDP-NS-SRS,2.75,,Region2,Europe and Central Asia,17.679076,43.915886
30395,103,BIH,Bosnia and Herzegovina,Party of Democratic Progress,2.25,,Region2,Europe and Central Asia,17.679076,43.915886
30398,102,BIH,Bosnia and Herzegovina,Party of Democratic Action,4.75,,Region2,Europe and Central Asia,17.679076,43.915886
30412,105,BIH,Bosnia and Herzegovina,Social Democratic Party of Bosnia and Herzegovina,3,,Region2,Europe and Central Asia,17.679076,43.915886
30434,122,BRA,Brazil,Brazilian Democratic Movement,3.3125,,Region3,Latin America and the Caribbean,-51.92528,-14.235004
30891,129,BRA,Brazil,Workers' Party,1,,Region3,Latin America and the Caribbean,-51.92528,-14.235004
30892,125,BRA,Brazil,Social Democracy Party,3.15,,Region3,Latin America and the Caribbean,-51.92528,-14.235004
31350,123,BRA,Brazil,Progressive Party,7.052631579,B,Region3,Latin America and the Caribbean,-51.92528,-14.235004
31357,120,BRA,Brazil,Brazilian Socialist Party,1.8125,,Region3,Latin America and the Caribbean,-51.92528,-14.235004
31821,128,BRA,Brazil,Social Liberal Party ,8.814814815,C,Region3,Latin America and the Caribbean,-51.92528,-14.235004
31822,121,BRA,Brazil,Democrats,5.9,,Region3,Latin America and the Caribbean,-51.92528,-14.235004
32280,119,BRA,Brazil,Brazilian Republican Party,7.705882353,B,Region3,Latin America and the Caribbean,-51.92528,-14.235004
32397,86,BGR,Bulgaria,Bulgarian Socialist Party,4.857142857,,Region2,Europe and Central Asia,25.48583,42.733883
32400,88,BGR,Bulgaria,Movement for Rights and Freedoms (DPS),4.166666667,,Region2,Europe and Central Asia,25.48583,42.733883
32613,87,BGR,Bulgaria,Citizens for European Development of Bulgaria,3.4,,Region2,Europe and Central Asia,25.48583,42.733883
32622,90,BGR,Bulgaria,Will,7.333333333,B,Region2,Europe and Central Asia,25.48583,42.733883
32912,245,DNK,Denmark,Danish People's Party,4.2,,Region2,Europe and Central Asia,9.501785,56.26392
32978,108,BLR,Belarus,Communist Party of Belarus,3.666666667,,Region2,Europe and Central Asia,27.953389,53.709807
32979,107,BLR,Belarus,Belarusian Patriotic Party,4,,Region2,Europe and Central Asia,27.953389,53.709807
33114,111,BLR,Belarus,Republican Party of Labour and Justice,4,,Region2,Europe and Central Asia,27.953389,53.709807
33128,109,BLR,Belarus,Liberal Democratic Party of Belarus,4,,Region2,Europe and Central Asia,27.953389,53.709807
33258,112,BLR,Belarus,United Civil Party,0.5,,Region2,Europe and Central Asia,27.953389,53.709807
33261,140,CAN,Canada,Liberal Party,1.294117647,,Region5,North America,-106.346771,56.130366
33996,138,CAN,Canada,Conservative Party,6,A,Region5,North America,-106.346771,56.130366
33997,141,CAN,Canada,New Democratic Party,1.352941176,,Region5,North America,-106.346771,56.130366
34733,137,CAN,Canada,Bloc Quebecois,2.066666667,,Region5,North America,-106.346771,56.130366
34734,139,CAN,Canada,Green Party,1.823529412,,Region5,North America,-106.346771,56.130366
35144,970,TWN,Taiwan,Democratic Progressive Party,2.2,,Region1,East Asia and the Pacific,120.960515,23.69781
35347,972,TWN,Taiwan,New Party,6,A,Region1,East Asia and the Pacific,120.960515,23.69781
35550,969,TWN,Taiwan,Chinese Nationalist Party,2.5,,Region1,East Asia and the Pacific,120.960515,23.69781
35754,973,TWN,Taiwan,New Power Party,2.6,,Region1,East Asia and the Pacific,120.960515,23.69781
35957,977,TWN,Taiwan,Taiwan Solidarity Union,3.25,,Region1,East Asia and the Pacific,120.960515,23.69781
36160,976,TWN,Taiwan,People First Party,2.8,,Region1,East Asia and the Pacific,120.960515,23.69781
36363,975,TWN,Taiwan,Other Parties,3,,Region1,East Asia and the Pacific,120.960515,23.69781
36566,184,COL,Colombia,Colombian Conservative Party,10,E,Region3,Latin America and the Caribbean,-74.297333,4.570868
36929,185,COL,Colombia,Colombian Liberal Party,3.333333333,,Region3,Latin America and the Caribbean,-74.297333,4.570868
36930,189,COL,Colombia,National Unity Social Party / Party of the U,7,B,Region3,Latin America and the Caribbean,-74.297333,4.570868
37293,190,COL,Colombia,Radical Change Party,6.5,A,Region3,Latin America and the Caribbean,-74.297333,4.570868
37294,188,COL,Colombia,Independent Movement of Absolute Renovation,10,E,Region3,Latin America and the Caribbean,-74.297333,4.570868
37657,187,COL,Colombia,Green Alliance Party,1,,Region3,Latin America and the Caribbean,-74.297333,4.570868
37659,181,COL,Colombia,Alternative Democratic Polo Party,0.666666667,,Region3,Latin America and the Caribbean,-74.297333,4.570868
38028,186,COL,Colombia,Democratic Center Party,7,B,Region3,Latin America and the Caribbean,-74.297333,4.570868
38067,391,HRV,Croatia,HDZ Coalition,5.666666667,,Region2,Europe and Central Asia,15.2,45.1
38077,393,HRV,Croatia,People's Coalition,1.375,,Region2,Europe and Central Asia,15.2,45.1
38164,386,HRV,Croatia,Bridge of Independent Lists,6.666666667,A,Region2,Europe and Central Asia,15.2,45.1
38167,221,CYP,Cyprus,Progressive Party of the Working People,1.3,,Region2,Europe and Central Asia,33.429859,35.126413
38226,217,CYP,Cyprus,Democratic Rally,2.111111111,,Region2,Europe and Central Asia,33.429859,35.126413
38227,216,CYP,Cyprus,Democratic Alignment,3,,Region2,Europe and Central Asia,33.429859,35.126413
38286,219,CYP,Cyprus,Movement of Social Democrats,2.777777778,,Region2,Europe and Central Asia,33.429859,35.126413
38288,218,CYP,Cyprus,Green Party - Citizen's Alliance,2.111111111,,Region2,Europe and Central Asia,33.429859,35.126413
38348,220,CYP,Cyprus,National People's Front,8,C,Region2,Europe and Central Asia,33.429859,35.126413
38511,228,CZE,Czech Republic,Czech Social Democratic Party,2.956521739,,Region2,Europe and Central Asia,15.472962,49.817492
38513,224,CZE,Czech Republic,Christian and Democratic Union – Czechoslovak People's Party,4.846153846,,Region2,Europe and Central Asia,15.472962,49.817492
38811,226,CZE,Czech Republic,Communist Party of Bohemia and Moravia,5.222222222,,Region2,Europe and Central Asia,15.472962,49.817492
38814,225,CZE,Czech Republic,Civic Democratic Party,6,A,Region2,Europe and Central Asia,15.472962,49.817492
39139,229,CZE,Czech Republic,Freedom and Direct Democracy,8.277777778,C,Region2,Europe and Central Asia,15.472962,49.817492
39141,230,CZE,Czech Republic,Mayors and Independents,3,,Region2,Europe and Central Asia,15.472962,49.817492
39296,249,DNK,Denmark,Social Democratic Party,2,,Region2,Europe and Central Asia,9.501785,56.26392
39661,248,DNK,Denmark,Radical Left,0.875,,Region2,Europe and Central Asia,9.501785,56.26392
39844,244,DNK,Denmark,Conservative People's Party,3.285714286,,Region2,Europe and Central Asia,9.501785,56.26392
39845,250,DNK,Denmark,Socialist People's Party,1.125,,Region2,Europe and Central Asia,9.501785,56.26392
40211,251,DNK,Denmark,Unity List-Red Green Alliance,0.75,,Region2,Europe and Central Asia,9.501785,56.26392
40212,247,DNK,Denmark,Liberal Alliance,3.714285714,,Region2,Europe and Central Asia,9.501785,56.26392
40579,246,DNK,Denmark,"Left, Liberal Party of Denmark",2.571428571,,Region2,Europe and Central Asia,9.501785,56.26392
40580,242,DNK,Denmark,Alternative,0.875,,Region2,Europe and Central Asia,9.501785,56.26392
40860,256,DOM,Dominican Republic,Social Christian Reformist Party,7,B,Region3,Latin America and the Caribbean,-70.162651,18.735693
40960,265,ECU,Ecuador,Movimiento Alianza Pais,4.333333333,,Region3,Latin America and the Caribbean,-78.183406,-1.831239
41176,267,ECU,Ecuador,Party of the Democratic Left,2.25,,Region3,Latin America and the Caribbean,-78.183406,-1.831239
41177,264,ECU,Ecuador,January 21 Patriotic Society Party,7.666666667,B,Region3,Latin America and the Caribbean,-78.183406,-1.831239
41392,266,ECU,Ecuador,Pachakutik Plurinational Unity Movement - New Country,3.666666667,,Region3,Latin America and the Caribbean,-78.183406,-1.831239
41395,262,ECU,Ecuador,Creating Opportunities Movement,6,A,Region3,Latin America and the Caribbean,-78.183406,-1.831239
41613,263,ECU,Ecuador,Fuerza Ecuador,8,C,Region3,Latin America and the Caribbean,-78.183406,-1.831239
41615,268,ECU,Ecuador,Social Christian Party,6,A,Region3,Latin America and the Caribbean,-78.183406,-1.831239
41839,860,SLV,El Salvador,Nationalist Republican Alliance,8.2,C,Region3,Latin America and the Caribbean,-88.89653,13.794185
41840,853,SLV,El Salvador,Farabundo Marti National Liberation Front,3.2,,Region3,Latin America and the Caribbean,-88.89653,13.794185
42073,852,SLV,El Salvador,Christian Democratic Party,6,A,Region3,Latin America and the Caribbean,-88.89653,13.794185
42075,858,SLV,El Salvador,National Coalition Party,8.2,C,Region3,Latin America and the Caribbean,-88.89653,13.794185
42220,294,ETH,Ethiopia,Afar National Democratic Party,4,,Region7,Sub-Saharan Africa,40.489673,9.145
42224,298,ETH,Ethiopia,The Benishangul Gumuz Peoples Democratic Party,3.75,,Region7,Sub-Saharan Africa,40.489673,9.145
42280,295,ETH,Ethiopia,Ethiopian People's Revolutionary Democratic Front,4.333333333,,Region7,Sub-Saharan Africa,40.489673,9.145
42286,296,ETH,Ethiopia,Somali People's Democratic Party,3.666666667,,Region7,Sub-Saharan Africa,40.489673,9.145
42319,289,EST,Estonia,Estonian Centre Party,2.818181818,,Region2,Europe and Central Asia,25.013607,58.595272
42558,291,EST,Estonia,Estonian Reform Party,2.6,,Region2,Europe and Central Asia,25.013607,58.595272
42577,293,EST,Estonia,Union of Pro Patria and Res Publica,5.666666667,,Region2,Europe and Central Asia,25.013607,58.595272
42814,292,EST,Estonia,Social-Democratic Party,0.818181818,,Region2,Europe and Central Asia,25.013607,58.595272
42819,288,EST,Estonia,Conservative People's Party of Estonia,7.818181818,B,Region2,Europe and Central Asia,25.013607,58.595272
43056,290,EST,Estonia,Estonian Free Party,3.2,,Region2,Europe and Central Asia,25.013607,58.595272
43058,307,FIN,Finland,Social Democratic Party,1.526315789,,Region2,Europe and Central Asia,25.748151,61.92411
43553,301,FIN,Finland,Center Party,2.75,,Region2,Europe and Central Asia,25.748151,61.92411
43554,305,FIN,Finland,National Coalition Party,2.368421053,,Region2,Europe and Central Asia,25.748151,61.92411
44049,304,FIN,Finland,Left Alliance,0.55,,Region2,Europe and Central Asia,25.748151,61.92411
44050,308,FIN,Finland,Swedish People's Party,1.15,,Region2,Europe and Central Asia,25.748151,61.92411
44545,303,FIN,Finland,Green League,0.5,,Region2,Europe and Central Asia,25.748151,61.92411
44546,309,FIN,Finland,The Finns Party,6.357142857,A,Region2,Europe and Central Asia,25.748151,61.92411
45041,302,FIN,Finland,Christian Democrats,4.666666667,,Region2,Europe and Central Asia,25.748151,61.92411
45045,306,FIN,Finland,Others,2,,Region2,Europe and Central Asia,25.748151,61.92411
45296,320,FRA,France,Socialist Party,2.888888889,,Region2,Europe and Central Asia,2.213749,46.227638
45575,317,FRA,France,La France Insoumise,2.4,,Region2,Europe and Central Asia,2.213749,46.227638
45578,318,FRA,France,La République En Marche,3.222222222,,Region2,Europe and Central Asia,2.213749,46.227638
45855,316,FRA,France,Democratic Movement,2.875,,Region2,Europe and Central Asia,2.213749,46.227638
45856,322,FRA,France,Union of Democrats and Independents,3,,Region2,Europe and Central Asia,2.213749,46.227638
46134,321,FRA,France,The Republicans,4.272727273,,Region2,Europe and Central Asia,2.213749,46.227638
46136,319,FRA,France,National Rally,5.444444444,,Region2,Europe and Central Asia,2.213749,46.227638
46353,340,GEO,Georgia,United National Movement,4.285714286,,Region2,Europe and Central Asia,43.356892,42.315407
46377,336,GEO,Georgia,Free Democrats,4.125,,Region2,Europe and Central Asia,43.356892,42.315407
46446,234,DEU,Germany,Christian Democratic Union,3.8,,Region2,Europe and Central Asia,10.451526,51.165691
47057,235,DEU,Germany,Christian Social Union in Bavaria,6.222222222,A,Region2,Europe and Central Asia,10.451526,51.165691
47058,237,DEU,Germany,Social Democratic Party,2.076923077,,Region2,Europe and Central Asia,10.451526,51.165691
47669,236,DEU,Germany,Free Democratic Party ,3.8,,Region2,Europe and Central Asia,10.451526,51.165691
47670,232,DEU,Germany,Alliance 90/The Greens,0.357142857,,Region2,Europe and Central Asia,10.451526,51.165691
48295,233,DEU,Germany,Alternative for Germany ,8.461538462,C,Region2,Europe and Central Asia,10.451526,51.165691
48296,238,DEU,Germany,The Left,1.071428571,,Region2,Europe and Central Asia,10.451526,51.165691
48610,341,GHA,Ghana,National Democratic Congress,4,,Region7,Sub-Saharan Africa,-1.023194,7.946527
48633,342,GHA,Ghana,New Patriotic Party,3.6,,Region7,Sub-Saharan Africa,-1.023194,7.946527
48756,365,GRC,Greece,Communist Party of Greece,2.25,,Region2,Europe and Central Asia,21.824312,39.074208
48757,370,GRC,Greece,Syriza Unionist Social Front,0.923076923,,Region2,Europe and Central Asia,21.824312,39.074208
48990,367,GRC,Greece,Independent Greeks,6,A,Region2,Europe and Central Asia,21.824312,39.074208
48995,368,GRC,Greece,New Democracy,3.5,,Region2,Europe and Central Asia,21.824312,39.074208
49230,366,GRC,Greece,Golden Dawn,8.272727273,C,Region2,Europe and Central Asia,21.824312,39.074208
49232,380,GTM,Guatemala,National Unity for Hope,3,,Region3,Latin America and the Caribbean,-90.230759,15.783471
49301,400,HTI,Haiti,Haitian Tet Kale Party,7.25,B,Region3,Latin America and the Caribbean,-72.285215,18.971187
49310,396,HTI,Haiti,Alternative League for the Progress and Emancipation of Haiti,4,,Region3,Latin America and the Caribbean,-72.285215,18.971187
49312,398,HTI,Haiti,Fanmi Lavalas,1.25,,Region3,Latin America and the Caribbean,-72.285215,18.971187
49323,402,HTI,Haiti,Organization of People in Struggle,2.4,,Region3,Latin America and the Caribbean,-72.285215,18.971187
49357,406,HUN,Hungary,Fidesz,8.090909091,C,Region2,Europe and Central Asia,19.503304,47.162494
49667,409,HUN,Hungary,Hungarian Socialist Party - Dialogue for Hungary,2.230769231,,Region2,Europe and Central Asia,19.503304,47.162494
49673,408,HUN,Hungary,"Jobbik, Movement for a Better Hungary",6.857142857,A,Region2,Europe and Central Asia,19.503304,47.162494
49986,411,HUN,Hungary,Politics Can Be Different,1.461538462,,Region2,Europe and Central Asia,19.503304,47.162494
49987,412,HUN,Hungary,The Democratic Coalition,2,,Region2,Europe and Central Asia,19.503304,47.162494
50296,413,HUN,Hungary,Together – Party for a New Era,1.272727273,,Region2,Europe and Central Asia,19.503304,47.162494
50373,464,ISL,Iceland,Progressive Party,2.375,,Region2,Europe and Central Asia,-19.020835,64.963051
50374,460,ISL,Iceland,Independence Party,4,,Region2,Europe and Central Asia,-19.020835,64.963051
50516,461,ISL,Iceland,Left-Green Movement,1.272727273,,Region2,Europe and Central Asia,-19.020835,64.963051
50519,458,ISL,Iceland,Bright Future,2.75,,Region2,Europe and Central Asia,-19.020835,64.963051
50660,463,ISL,Iceland,Pirate Party,1.7,,Region2,Europe and Central Asia,-19.020835,64.963051
50661,465,ISL,Iceland,Reform Party,1.888888889,,Region2,Europe and Central Asia,-19.020835,64.963051
50805,462,ISL,Iceland,People's Party,5.444444444,,Region2,Europe and Central Asia,-19.020835,64.963051
50806,459,ISL,Iceland,Centre Party ,5.888888889,,Region2,Europe and Central Asia,-19.020835,64.963051
51101,425,IND,India,All India Trinamool Congress,3.75,,Region6,South Asia,78.96288,20.593684
51104,430,IND,India,Shivsena,5.863636364,,Region6,South Asia,78.96288,20.593684
51326,427,IND,India,Biju Janata Dal,3.6875,,Region6,South Asia,78.96288,20.593684
51775,424,IND,India,All India Anna Dravida Munnetra Kazhagam,3.214285714,,Region6,South Asia,78.96288,20.593684
51791,429,IND,India,Indian National Congress,3.47826087,,Region6,South Asia,78.96288,20.593684
52226,426,IND,India,Bharatiya Janata Party,6.576923077,A,Region6,South Asia,78.96288,20.593684
52227,428,IND,India,Communist Party of India,3.259259259,,Region6,South Asia,78.96288,20.593684
52663,432,IND,India,Telugu Desam,4.5,,Region6,South Asia,78.96288,20.593684
52669,431,IND,India,Telangana Rashtra Samithi,4.352941176,,Region6,South Asia,78.96288,20.593684
52902,414,IDN,Indonesia,Democratic Party,1.5,,Region1,East Asia and the Pacific,113.921327,-0.789275
53177,418,IDN,Indonesia,National Democrat Party,2.6,,Region1,East Asia and the Pacific,113.921327,-0.789275
53178,420,IDN,Indonesia,Party of the Functional Groups,1.8,,Region1,East Asia and the Pacific,113.921327,-0.789275
53453,423,IDN,Indonesia,United Development Party,6,A,Region1,East Asia and the Pacific,113.921327,-0.789275
53456,416,IDN,Indonesia,Indonesian Democratic Party,2.166666667,,Region1,East Asia and the Pacific,113.921327,-0.789275
53732,422,IDN,Indonesia,Prosperous Justice Party,6.285714286,A,Region1,East Asia and the Pacific,113.921327,-0.789275
53733,417,IDN,Indonesia,National Awakening Party,3.571428571,,Region1,East Asia and the Pacific,113.921327,-0.789275
54008,419,IDN,Indonesia,National Mandate Party,3.25,,Region1,East Asia and the Pacific,113.921327,-0.789275
54010,415,IDN,Indonesia,Great Indonesia Movement Party,1.5,,Region1,East Asia and the Pacific,113.921327,-0.789275
54286,421,IDN,Indonesia,People's Conscience Party,3.333333333,,Region1,East Asia and the Pacific,113.921327,-0.789275
54305,449,IRQ,Iraq,Kurdistan Democratic Party,0,,Region4,Middle East and North Africa,43.679291,33.223191
54306,454,IRQ,Iraq,Patriotic Union of Kurdistan,0,,Region4,Middle East and North Africa,43.679291,33.223191
54335,451,IRQ,Iraq,Movement for Change,0,,Region4,Middle East and North Africa,43.679291,33.223191
54485,470,ISR,Israel,Likud,3.75,,Region4,Middle East and North Africa,34.851612,31.046051
54487,472,ISR,Israel,Shas,9,D,Region4,Middle East and North Africa,34.851612,31.046051
54724,471,ISR,Israel,Meretz,0.230769231,,Region4,Middle East and North Africa,34.851612,31.046051
54740,481,ITA,Italy,Free and Equal,1.388888889,,Region2,Europe and Central Asia,12.56738,41.87194
55078,477,ITA,Italy,"Centre-Left Coalition (Democratic Party, More Europe,Together, Popular Civic, SVP-PATT)",1.756756757,,Region2,Europe and Central Asia,12.56738,41.87194
55082,480,ITA,Italy,Five Star Movement,2.857142857,,Region2,Europe and Central Asia,12.56738,41.87194
55422,479,ITA,Italy,"Centre-Right Coalition (Lega Nord, Forza Italia, Brothers of Italy, Us with Italy)",7.375,B,Region2,Europe and Central Asia,12.56738,41.87194
55512,495,JPN,Japan,Liberal Democratic Party,5.7,,Region1,East Asia and the Pacific,138.252924,36.204824
55514,494,JPN,Japan,Komeitō,2.5,,Region1,East Asia and the Pacific,138.252924,36.204824
55687,493,JPN,Japan,Japanese Communist Party,2,,Region1,East Asia and the Pacific,138.252924,36.204824
55693,498,JPN,Japan,Social Democratic Party,1.785714286,,Region1,East Asia and the Pacific,138.252924,36.204824
55827,501,KAZ,Kazakhstan,Democratic Party of Kazakhstan,0,,Region2,Europe and Central Asia,66.923684,48.019573
55828,502,KAZ,Kazakhstan,Kazakhstan Social and Democratic Party 'Auyl',0,,Region2,Europe and Central Asia,66.923684,48.019573
55899,500,KAZ,Kazakhstan,Communist People's Party of Kazakhstan,0,,Region2,Europe and Central Asia,66.923684,48.019573
55905,499,KAZ,Kazakhstan,Birlik,0,,Region2,Europe and Central Asia,66.923684,48.019573
55976,504,KAZ,Kazakhstan,Nur Otan,0,,Region2,Europe and Central Asia,66.923684,48.019573
56009,487,JOR,Jordan,Islamic Action Front,8,C,Region4,Middle East and North Africa,36.238414,30.585164
56140,517,KGZ,Kyrgyzstan,Social Democratic Party of Kyrgyzstan,4.666666667,,Region2,Europe and Central Asia,74.766098,41.20438
56141,516,KGZ,Kyrgyzstan,Respublika - Ata-Zhurt,5.5,,Region2,Europe and Central Asia,74.766098,41.20438
56299,518,KGZ,Kyrgyzstan,Socialist Party Ata Meken,6,A,Region2,Europe and Central Asia,74.766098,41.20438
56309,546,LBN,Lebanon,The Lebanese Forces,3,,Region4,Middle East and North Africa,35.862285,33.854721
56310,545,LBN,Lebanon,The Future Movement,3.142857143,,Region4,Middle East and North Africa,35.862285,33.854721
56321,537,LBN,Lebanon,Amal Movement,6.25,A,Region4,Middle East and North Africa,35.862285,33.854721
56322,540,LBN,Lebanon,Hezbollah,8.833333333,C,Region4,Middle East and North Africa,35.862285,33.854721
56341,543,LBN,Lebanon,Progressive Socialist Party,4,,Region4,Middle East and North Africa,35.862285,33.854721
56368,547,LBY,Libya,Justice and Construction Party,5,,Region4,Middle East and North Africa,17.228331,26.3351
56371,550,LBY,Libya,National Forces Alliance,0,,Region4,Middle East and North Africa,17.228331,26.3351
56372,590,LVA,Latvia,National Alliance,5.333333333,,Region2,Europe and Central Asia,24.603189,56.879635
56481,567,LTU,Lithuania,Homeland Union – Lithuanian Christian Democrats,3.8,,Region2,Europe and Central Asia,23.881275,55.169438
56713,576,LTU,Lithuania,Social Democratic Party of Lithuania,1.714285714,,Region2,Europe and Central Asia,23.881275,55.169438
56734,574,LTU,Lithuania,Lithuanian Poles' Electoral Action - Christian Family,7.2,B,Region2,Europe and Central Asia,23.881275,55.169438
56963,573,LTU,Lithuania,Lithuanian Peasant and Greens Union,6.4,A,Region2,Europe and Central Asia,23.881275,55.169438
56964,572,LTU,Lithuania,Lithuanian List,7.666666667,B,Region2,Europe and Central Asia,23.881275,55.169438
57193,575,LTU,Lithuania,Order and Justice,7.6,B,Region2,Europe and Central Asia,23.881275,55.169438
57246,694,MYS,Malaysia,National Front,4.142857143,,Region1,East Asia and the Pacific,101.975766,4.210484
57248,693,MYS,Malaysia,Malaysian Islamic Party,8.636363636,C,Region1,East Asia and the Pacific,101.975766,4.210484
57299,642,MLI,Mali,Alliance for Democracy in Mali,4,,Region7,Sub-Saharan Africa,-3.996166,17.570692
57322,631,MEX,Mexico,Coalición PRI-PVEM ,4.285714286,,Region3,Latin America and the Caribbean,-102.552784,23.634501
57545,635,MEX,Mexico,Partido Accion Nacional,6.611111111,A,Region3,Latin America and the Caribbean,-102.552784,23.634501
57990,636,MEX,Mexico,Partido de la Revolucion Democrática,2.736842105,,Region3,Latin America and the Caribbean,-102.552784,23.634501
57991,637,MEX,Mexico,Partido del Trabajo,3.666666667,,Region3,Latin America and the Caribbean,-102.552784,23.634501
58228,633,MEX,Mexico,Movimiento Ciudadano,2.5,,Region3,Latin America and the Caribbean,-102.552784,23.634501
58673,640,MEX,Mexico,Partido Nueva Alianza,4.818181818,,Region3,Latin America and the Caribbean,-102.552784,23.634501
58674,634,MEX,Mexico,Movimiento Regeneracion Nacional,2.272727273,,Region3,Latin America and the Caribbean,-102.552784,23.634501
59119,638,MEX,Mexico,Partido Encuentro Social,7.461538462,B,Region3,Latin America and the Caribbean,-102.552784,23.634501
59175,614,MDA,Moldova,Party of Communists,3.666666667,,Region2,Europe and Central Asia,28.369885,47.411631
59178,611,MDA,Moldova,Democratic Party of Moldova,3,,Region2,Europe and Central Asia,28.369885,47.411631
59303,615,MDA,Moldova,Party of Socialists,5,,Region2,Europe and Central Asia,28.369885,47.411631
59307,613,MDA,Moldova,Liberal Party,6.666666667,A,Region2,Europe and Central Asia,28.369885,47.411631
59382,610,MAR,Morocco,Socialist Union of Popular Forces,1.666666667,,Region4,Middle East and North Africa,-7.09262,31.791702
59403,605,MAR,Morocco,Istiqlal Party,8.666666667,C,Region4,Middle East and North Africa,-7.09262,31.791702
59445,607,MAR,Morocco,National Rally of Independents,3,,Region4,Middle East and North Africa,-7.09262,31.791702
59467,608,MAR,Morocco,Party of Progress and Socialism,1.333333333,,Region4,Middle East and North Africa,-7.09262,31.791702
59488,602,MAR,Morocco,Constitutional Union,1,,Region4,Middle East and North Africa,-7.09262,31.791702
59510,606,MAR,Morocco,Justice and Development Party,8.666666667,C,Region4,Middle East and North Africa,-7.09262,31.791702
59532,601,MAR,Morocco,Authenticity and Modernity Party,1.666666667,,Region4,Middle East and North Africa,-7.09262,31.791702
59553,721,NLD,Netherlands,Labour Party,2.5,,Region2,Europe and Central Asia,5.291266,52.132633
59858,718,NLD,Netherlands,Christian Democratic Appeal,4.7,,Region2,Europe and Central Asia,5.291266,52.132633
59859,724,NLD,Netherlands,People's Party for Freedom and Democracy,3.5,,Region2,Europe and Central Asia,5.291266,52.132633
60164,720,NLD,Netherlands,Democrats 66,1.75,,Region2,Europe and Central Asia,5.291266,52.132633
60165,726,NLD,Netherlands,Green Left,1.25,,Region2,Europe and Central Asia,5.291266,52.132633
60471,725,NLD,Netherlands,Socialist Party,3.230769231,,Region2,Europe and Central Asia,5.291266,52.132633
60472,722,NLD,Netherlands,Party for Freedom,5.454545455,,Region2,Europe and Central Asia,5.291266,52.132633
60777,719,NLD,Netherlands,Christian Union Party,5.076923077,,Region2,Europe and Central Asia,5.291266,52.132633
60778,723,NLD,Netherlands,Party for the Animals,1.375,,Region2,Europe and Central Asia,5.291266,52.132633
61083,717,NLD,Netherlands,50PLUS,2,,Region2,Europe and Central Asia,5.291266,52.132633
61093,745,NZL,New Zealand,ACT,3.166666667,,Region1,East Asia and the Pacific,174.885971,-40.900557
61276,746,NZL,New Zealand,Green Party,1.875,,Region1,East Asia and the Pacific,174.885971,-40.900557
61277,748,NZL,New Zealand,Labour Party,2.5,,Region1,East Asia and the Pacific,174.885971,-40.900557
61458,749,NZL,New Zealand,National Party,4,,Region1,East Asia and the Pacific,174.885971,-40.900557
61459,747,NZL,New Zealand,New Zealand First Party,5.2,,Region1,East Asia and the Pacific,174.885971,-40.900557
61555,701,NGA,Nigeria,Action Alliance,1.25,,Region7,Sub-Saharan Africa,8.675277,9.081999
61623,702,NGA,Nigeria,African Democratic Congress,3.25,,Region7,Sub-Saharan Africa,8.675277,9.081999
61632,709,NGA,Nigeria,Peoples Democratic Party,2.25,,Region7,Sub-Saharan Africa,8.675277,9.081999
61703,705,NGA,Nigeria,Alliance For Democracy,1.8,,Region7,Sub-Saharan Africa,8.675277,9.081999
61707,704,NGA,Nigeria,All Progressives Congress,4,,Region7,Sub-Saharan Africa,8.675277,9.081999
61776,708,NGA,Nigeria,National Conscience Party,1.8,,Region7,Sub-Saharan Africa,8.675277,9.081999
61778,731,NOR,Norway,Labour Party,2.444444444,,Region2,Europe and Central Asia,8.468946,60.472024
62105,733,NOR,Norway,Progress Party,2.75,,Region2,Europe and Central Asia,8.468946,60.472024
62106,729,NOR,Norway,Conservative Party,3.111111111,,Region2,Europe and Central Asia,8.468946,60.472024
62433,728,NOR,Norway,Christian Democratic Party,4.8,,Region2,Europe and Central Asia,8.468946,60.472024
62436,735,NOR,Norway,Socialist Left Party,2.222222222,,Region2,Europe and Central Asia,8.468946,60.472024
62763,727,NOR,Norway,Centre Party,2.5,,Region2,Europe and Central Asia,8.468946,60.472024
62764,732,NOR,Norway,Liberal Party,3,,Region2,Europe and Central Asia,8.468946,60.472024
63092,734,NOR,Norway,Red Party,1.777777778,,Region2,Europe and Central Asia,8.468946,60.472024
63095,730,NOR,Norway,Green Party,2.75,,Region2,Europe and Central Asia,8.468946,60.472024
63261,759,PAK,Pakistan,Pakistan People’s Party,1.272727273,,Region6,South Asia,69.345116,30.375321
63387,758,PAK,Pakistan,"Pakistan Muslim League, Nawaz Sharif faction",2.3,,Region6,South Asia,69.345116,30.375321
63513,757,PAK,Pakistan,Pakistan Muslim League-Qaid,4.2,,Region6,South Asia,69.345116,30.375321
63641,750,PAK,Pakistan,Awami National Party,2.416666667,,Region6,South Asia,69.345116,30.375321
63767,754,PAK,Pakistan,Movement for Justice,1.875,,Region6,South Asia,69.345116,30.375321
63893,753,PAK,Pakistan,Independents,4,,Region6,South Asia,69.345116,30.375321
64033,755,PAK,Pakistan,Muttahida Majlis-e-Amal,8,C,Region6,South Asia,69.345116,30.375321
64164,756,PAK,Pakistan,Muttahida Qaumi Movement,2.333333333,,Region6,South Asia,69.345116,30.375321
64296,768,PER,Peru,Popular Action,3.75,,Region3,Latin America and the Caribbean,-75.015152,-9.189967
64480,765,PER,Peru,Alliance for the Progress of Peru,5,,Region3,Latin America and the Caribbean,-75.015152,-9.189967
64641,770,PER,Peru,Popular Force,8.5,C,Region3,Latin America and the Caribbean,-75.015152,-9.189967
64801,767,PER,Peru,Peruvians for Change,3.5,,Region3,Latin America and the Caribbean,-75.015152,-9.189967
64962,766,PER,Peru,Broad Front,2,,Region3,Latin America and the Caribbean,-75.015152,-9.189967
65120,772,PHL,Philippines,Liberal Party,2.666666667,,Region1,East Asia and the Pacific,121.774017,12.879721
65177,773,PHL,Philippines,Nacionalista Party,5,,Region1,East Asia and the Pacific,121.774017,12.879721
65234,774,PHL,Philippines,Nationalist People’s Coalition,5,,Region1,East Asia and the Pacific,121.774017,12.879721
65291,775,PHL,Philippines,Philippine Democratic Party-People's Power,5.428571429,,Region1,East Asia and the Pacific,121.774017,12.879721
65353,776,PHL,Philippines,Struggle of Democratic Filipinos,5,,Region1,East Asia and the Pacific,121.774017,12.879721
65415,771,PHL,Philippines,Independents,4.5,,Region1,East Asia and the Pacific,121.774017,12.879721
65679,791,POL,Poland,Polish Peasant Party,4.428571429,,Region2,Europe and Central Asia,19.145136,51.919438
65695,790,POL,Poland,Law and Justice,8.636363636,C,Region2,Europe and Central Asia,19.145136,51.919438
66090,788,POL,Poland,Civic Platform,2.538461538,,Region2,Europe and Central Asia,19.145136,51.919438
66117,805,ROU,Romania,Democratic Union of Hungarians in Romania,3.583333333,,Region2,Europe and Central Asia,24.96676,45.943161
66225,807,ROU,Romania,Party of Social Democracy of Romania - Social Democratic Party,2.944444444,,Region2,Europe and Central Asia,24.96676,45.943161
66348,806,ROU,Romania,National Liberal Party,3.588235294,,Region2,Europe and Central Asia,24.96676,45.943161
66459,804,ROU,Romania,Alliance of Liberals and Democrats,3.928571429,,Region2,Europe and Central Asia,24.96676,45.943161
66566,808,ROU,Romania,People's Movement Party,4.333333333,,Region2,Europe and Central Asia,24.96676,45.943161
66674,809,ROU,Romania,Save Romania Union,2.823529412,,Region2,Europe and Central Asia,24.96676,45.943161
66784,817,RUS,Russia,The Communist Party of the Russian Federation,7,B,Region2,Europe and Central Asia,105.318756,61.52401
66890,811,RUS,Russia,Liberal Democratic Party of Russia,8.5,C,Region2,Europe and Central Asia,105.318756,61.52401
66997,819,RUS,Russia,Yabloko,3.7,,Region2,Europe and Central Asia,105.318756,61.52401
67117,818,RUS,Russia,United Russia,8.4,C,Region2,Europe and Central Asia,105.318756,61.52401
67224,810,RUS,Russia,A Just Russia,5.857142857,,Region2,Europe and Central Asia,105.318756,61.52401
67333,813,RUS,Russia,Party of People's Freedom,3,,Region2,Europe and Central Asia,105.318756,61.52401
67439,812,RUS,Russia,Party of Growth,4.4,,Region2,Europe and Central Asia,105.318756,61.52401
67545,815,RUS,Russia,Russian Ecological Party,6,A,Region2,Europe and Central Asia,105.318756,61.52401
67652,814,RUS,Russia,Rodina,7.833333333,B,Region2,Europe and Central Asia,105.318756,61.52401
67758,816,RUS,Russia,Russian Party of Pensioners for Justice,8.333333333,C,Region2,Europe and Central Asia,105.318756,61.52401
67867,823,RWA,Rwanda,Rwanda Patriotic Front,0.833333333,,Region7,Sub-Saharan Africa,29.873888,-1.940278
67875,822,RWA,Rwanda,Party Imberakuri,1,,Region7,Sub-Saharan Africa,29.873888,-1.940278
67886,824,RWA,Rwanda,Social Democratic Party,1.833333333,,Region7,Sub-Saharan Africa,29.873888,-1.940278
67896,820,RWA,Rwanda,Democratic Green Party of Rwanda,2,,Region7,Sub-Saharan Africa,29.873888,-1.940278
67904,821,RWA,Rwanda,Liberal Party,1.4,,Region7,Sub-Saharan Africa,29.873888,-1.940278
67932,872,SRB,Serbia,Serbian Progressive Party,5.5,,Region2,Europe and Central Asia,21.005859,44.016521
67983,871,SRB,Serbia,Enough is Enough,2,,Region2,Europe and Central Asia,21.005859,44.016521
68089,831,SGP,Singapore,People's Action Party,3.8,,Region1,East Asia and the Pacific,103.819836,1.352083
68090,838,SGP,Singapore,Workers' Party,3,,Region1,East Asia and the Pacific,103.819836,1.352083
68203,835,SGP,Singapore,Singapore Democratic Party,2.818181818,,Region1,East Asia and the Pacific,103.819836,1.352083
68208,890,SVK,Slovakia,Slovak National Party,7.6,B,Region2,Europe and Central Asia,19.699024,48.669026
68357,889,SVK,Slovakia,People's Party - Our Slovakia,8.166666667,C,Region2,Europe and Central Asia,19.699024,48.669026
68485,884,SVK,Slovakia,Bridge,3,,Region2,Europe and Central Asia,19.699024,48.669026
68613,888,SVK,Slovakia,Ordinary People and Independent Personalities,5.5,,Region2,Europe and Central Asia,19.699024,48.669026
68741,887,SVK,Slovakia,Network,6,A,Region2,Europe and Central Asia,19.699024,48.669026
68869,886,SVK,Slovakia,Freedom and Solidarity,2.666666667,,Region2,Europe and Central Asia,19.699024,48.669026
68997,891,SVK,Slovakia,We are Family,7,B,Region2,Europe and Central Asia,19.699024,48.669026
69125,885,SVK,Slovakia,Direction Social Democracy,7.666666667,B,Region2,Europe and Central Asia,19.699024,48.669026
69395,893,SVN,Slovenia,Democratic Party of Pensioners of Slovenia,3.5,,Region2,Europe and Central Asia,14.995463,46.151241
69398,899,SVN,Slovenia,Slovenian National Party,7.125,B,Region2,Europe and Central Asia,14.995463,46.151241
69683,898,SVN,Slovenia,Slovenian Democratic Party,6.714285714,A,Region2,Europe and Central Asia,14.995463,46.151241
69685,900,SVN,Slovenia,Social Democrats,1.857142857,,Region2,Europe and Central Asia,14.995463,46.151241
69975,896,SVN,Slovenia,New Slovenia - Christian Democrats,5.375,,Region2,Europe and Central Asia,14.995463,46.151241
69979,897,SVN,Slovenia,Party of Modern Center,2.583333333,,Region2,Europe and Central Asia,14.995463,46.151241
70264,894,SVN,Slovenia,Left,0.928571429,,Region2,Europe and Central Asia,14.995463,46.151241
70265,892,SVN,Slovenia,Alliance of Alenka BratuÅ¡ek,2,,Region2,Europe and Central Asia,14.995463,46.151241
70409,1033,ZAF,South Africa,African Christian Democratic Party,4.727272727,,Region7,Sub-Saharan Africa,22.937506,-30.559482
70462,1035,ZAF,South Africa,African National Congress,2.333333333,,Region7,Sub-Saharan Africa,22.937506,-30.559482
70517,1037,ZAF,South Africa,Democratic Alliance,2.466666667,,Region7,Sub-Saharan Africa,22.937506,-30.559482
70570,1039,ZAF,South Africa,Freedom Front Plus,4,,Region7,Sub-Saharan Africa,22.937506,-30.559482
70623,1040,ZAF,South Africa,Inkatha Freedom Party,4.090909091,,Region7,Sub-Saharan Africa,22.937506,-30.559482
70679,1042,ZAF,South Africa,United Democratic Movement,2.125,,Region7,Sub-Saharan Africa,22.937506,-30.559482
70748,1038,ZAF,South Africa,Economic Freedom Fighters,1.8,,Region7,Sub-Saharan Africa,22.937506,-30.559482
70801,1036,ZAF,South Africa,Congress of the People,1.714285714,,Region7,Sub-Saharan Africa,22.937506,-30.559482
70855,1051,ZWE,Zimbabwe,Zimbabwe African National Union – Patriotic Front ,3.666666667,,Region7,Sub-Saharan Africa,29.154857,-19.015438
70884,1049,ZWE,Zimbabwe,Movement for Democratic Change,4,,Region7,Sub-Saharan Africa,29.154857,-19.015438
70889,284,ESP,Spain,Spanish Socialist Workers' Party,1.701298701,,Region2,Europe and Central Asia,-3.74922,40.463667
71044,282,ESP,Spain,People's Party,4.261904762,,Region2,Europe and Central Asia,-3.74922,40.463667
71218,283,ESP,Spain,Republican Left of Catalonia,1.969230769,,Region2,Europe and Central Asia,-3.74922,40.463667
71382,286,ESP,Spain,Unidas Podemos,0.987012987,,Region2,Europe and Central Asia,-3.74922,40.463667
71540,281,ESP,Spain,Citizens,3.125,,Region2,Europe and Central Asia,-3.74922,40.463667
71696,280,ESP,Spain,Basque Country Unite,2.545454545,,Region2,Europe and Central Asia,-3.74922,40.463667
71856,901,SWE,Sweden,Center Party,1.954545455,,Region2,Europe and Central Asia,18.643501,60.128161
72062,906,SWE,Sweden,Moderate Party,2.5,,Region2,Europe and Central Asia,18.643501,60.128161
72265,902,SWE,Sweden,Christian Democrats,4.3125,,Region2,Europe and Central Asia,18.643501,60.128161
72468,908,SWE,Sweden,Swedish Social Democratic Party,1.25,,Region2,Europe and Central Asia,18.643501,60.128161
72671,909,SWE,Sweden,The Left Party,1.083333333,,Region2,Europe and Central Asia,18.643501,60.128161
72875,907,SWE,Sweden,Sweden Democrats,6.6,A,Region2,Europe and Central Asia,18.643501,60.128161
73078,903,SWE,Sweden,Feminist Initiative,0.083333333,,Region2,Europe and Central Asia,18.643501,60.128161
73282,145,CHE,Switzerland,The Liberals,2.636363636,,Region2,Europe and Central Asia,8.227512,46.818188
73365,148,CHE,Switzerland,Social Democratic Party,0.75,,Region2,Europe and Central Asia,8.227512,46.818188
73448,142,CHE,Switzerland,Christian Democratic People's Party,3,,Region2,Europe and Central Asia,8.227512,46.818188
73531,150,CHE,Switzerland,Swiss People's Party,8.076923077,C,Region2,Europe and Central Asia,8.227512,46.818188
73614,147,CHE,Switzerland,Green Party of Switzerland,0.5625,,Region2,Europe and Central Asia,8.227512,46.818188
73701,144,CHE,Switzerland,Evangelical People's Party of Switzerland,5.428571429,,Region2,Europe and Central Asia,8.227512,46.818188
73784,149,CHE,Switzerland,Swiss Party of Labour,1.727272727,,Region2,Europe and Central Asia,8.227512,46.818188
73884,151,CHE,Switzerland,Ticino League,7.666666667,B,Region2,Europe and Central Asia,8.227512,46.818188
73968,146,CHE,Switzerland,Green Liberal Party of Switzerland,1.333333333,,Region2,Europe and Central Asia,8.227512,46.818188
74056,143,CHE,Switzerland,Conservative Democratic Party of Switzerland,5.285714286,,Region2,Europe and Central Asia,8.227512,46.818188
74149,904,SWE,Sweden,Green Party ,0.958333333,,Region2,Europe and Central Asia,18.643501,60.128161
74352,932,THA,Thailand,Democrat Party,3.5,,Region1,East Asia and the Pacific,100.992541,15.870032
74467,936,THA,Thailand,Pheu Thai Party,0,,Region1,East Asia and the Pacific,100.992541,15.870032
74579,938,THA,Thailand,Puea Chat Party,2,,Region1,East Asia and the Pacific,100.992541,15.870032
74692,931,THA,Thailand,Charthaipattana Party,4,,Region1,East Asia and the Pacific,100.992541,15.870032
74804,930,THA,Thailand,Bhumjaithai Party,4,,Region1,East Asia and the Pacific,100.992541,15.870032
74921,963,TUN,Tunisia,Nidaa Tounes,3.333333333,,Region4,Middle East and North Africa,9.537499,33.886917
74966,961,TUN,Tunisia,Ennahda Movement,7,B,Region4,Middle East and North Africa,9.537499,33.886917
74967,964,TUN,Tunisia,Popular Front,3.333333333,,Region4,Middle East and North Africa,9.537499,33.886917
75013,960,TUN,Tunisia,Congress for the Republic,4,,Region4,Middle East and North Africa,9.537499,33.886917
75017,959,TUN,Tunisia,Afek Tounes,3.333333333,,Region4,Middle East and North Africa,9.537499,33.886917
75062,962,TUN,Tunisia,Free Patriotic Union,1,,Region4,Middle East and North Africa,9.537499,33.886917
75075,968,TUR,Turkey,Republican People's Party ,1.411764706,,Region2,Europe and Central Asia,35.243322,38.963745
75314,967,TUR,Turkey,People’s Democratic Party,0.529411765,,Region2,Europe and Central Asia,35.243322,38.963745
75315,966,TUR,Turkey,Nationalist Movement Party,8.384615385,C,Region2,Europe and Central Asia,35.243322,38.963745
75552,965,TUR,Turkey,Justice and Development Party,8,C,Region2,Europe and Central Asia,35.243322,38.963745
75598,983,UGA,Uganda,Democratic Party,4.666666667,,Region7,Sub-Saharan Africa,32.290275,1.373333
75600,986,UGA,Uganda,National Resistance Movement,3,,Region7,Sub-Saharan Africa,32.290275,1.373333
75661,987,UGA,Uganda,Uganda People's Congress,4.666666667,,Region7,Sub-Saharan Africa,32.290275,1.373333
75716,600,MAC,North Macedonia,Social Democratic Union coalition,2.2,,Region2,Europe and Central Asia,113.543873,22.198745
75774,276,EGY,Egypt,Party of the Light (Al-Nour),10,E,Region4,Middle East and North Africa,30.802498,26.820553
75872,272,EGY,Egypt,Free Egyptians Party,2,,Region4,Middle East and North Africa,30.802498,26.820553
75981,327,GBR,United Kingdom,Conservative and Unionist Party,5.133333333,,Region2,Europe and Central Asia,-3.435973,55.378051
76542,330,GBR,United Kingdom,Labour Party,2.1875,,Region2,Europe and Central Asia,-3.435973,55.378051
76543,331,GBR,United Kingdom,Liberal Democrats,2.090909091,,Region2,Europe and Central Asia,-3.435973,55.378051
77104,332,GBR,United Kingdom,Plaid Cymru,2.428571429,,Region2,Europe and Central Asia,-3.435973,55.378051
77105,333,GBR,United Kingdom,Scottish National Party,2.181818182,,Region2,Europe and Central Asia,-3.435973,55.378051
77667,329,GBR,United Kingdom,Green Party,1.40625,,Region2,Europe and Central Asia,-3.435973,55.378051
77669,981,TZA,Tanzania,National Convention for Construction and Reform,3.5,,Region7,Sub-Saharan Africa,34.888822,-6.369028
77693,979,TZA,Tanzania,Chama Cha Mapinduzi,6.666666667,A,Region7,Sub-Saharan Africa,34.888822,-6.369028
77716,982,TZA,Tanzania,Party for Democracy and Development ,3.25,,Region7,Sub-Saharan Africa,34.888822,-6.369028
77739,980,TZA,Tanzania,Civic United Front,5.666666667,,Region7,Sub-Saharan Africa,34.888822,-6.369028
77763,1001,USA,United States,Republican Party,7.142857143,B,Region5,North America,-95.712891,37.09024
78494,1000,USA,United States,Democratic Party,1.465116279,,Region5,North America,-95.712891,37.09024
78499,70,BFA,Burkina Faso,Congress for Democracy and Progress,3,,Region7,Sub-Saharan Africa,-1.561593,12.238333
78518,69,BFA,Burkina Faso,Alliance for Democracy,4,,Region7,Sub-Saharan Africa,-1.561593,12.238333
78538,73,BFA,Burkina Faso,Party for Democracy and Socialism,3,,Region7,Sub-Saharan Africa,-1.561593,12.238333
78701,996,URY,Uruguay,Colorado Party,3.625,,Region3,Latin America and the Caribbean,-55.765835,-32.522779
78702,998,URY,Uruguay,National Party,4.333333333,,Region3,Latin America and the Caribbean,-55.765835,-32.522779
79025,995,URY,Uruguay,Broad Front,1,,Region3,Latin America and the Caribbean,-55.765835,-32.522779
79026,997,URY,Uruguay,Independent Party,2.6,,Region3,Latin America and the Caribbean,-55.765835,-32.522779
79208,1024,YEM,Yemen,Al-Islah,9,D,Region4,Middle East and North Africa,48.516388,15.552727
79216,1032,YEM,Yemen,Yemeni Socialist Party,2,,Region4,Middle East and North Africa,48.516388,15.552727
79217,1026,YEM,Yemen,Democratic Nasserist Party,7,B,Region4,Middle East and North Africa,48.516388,15.552727
79224,1030,YEM,Yemen,Nasserist Unionist People's Organization,7,B,Region4,Middle East and North Africa,48.516388,15.552727
79263,1045,ZMB,Zambia,Movement for Multiparty Democracy,3.666666667,,Region7,Sub-Saharan Africa,27.849332,-13.133897
79264,1046,ZMB,Zambia,Patriotic Front,3,,Region7,Sub-Saharan Africa,27.849332,-13.133897
79293,869,SRB,Serbia,Democratic Party,0.25,,Region2,Europe and Central Asia,21.005859,44.016521
79342,870,SRB,Serbia,Democratic Party of Serbia-Dveri,2,,Region2,Europe and Central Asia,21.005859,44.016521
79391,873,SRB,Serbia,Serbian Radical Party,7.666666667,B,Region2,Europe and Central Asia,21.005859,44.016521
79444,874,SRB,Serbia,Socialist Party of Serbia,4.5,,Region2,Europe and Central Asia,21.005859,44.016521
79516,667,MNE,Montenegro,Democratic Party of Socialists,2,,Region2,Europe and Central Asia,19.37439,42.708678
79526,669,MNE,Montenegro,Social Democratic Party,0.666666667,,Region2,Europe and Central Asia,19.37439,42.708678
79540,662,MNE,Montenegro,Albanians Decisively,6.5,A,Region2,Europe and Central Asia,19.37439,42.708678